{
"type": "FeatureCollection",
"crs": { "type": "name", "properties": { "name": "urn:ogc:def:crs:OGC:1.3:CRS84" } },
"features": [
{ "type": "Feature", "properties": { "zip": "90004", "city": "Los Angeles", "state": "CA", "teslas": 97, "tesla_rate": 2.84 }, "geometry": { "type": "Point", "coordinates": [ -118.31, 34.07 ] } },
{ "type": "Feature", "properties": { "zip": "90005", "city": "Los Angeles", "state": "CA", "teslas": 16, "tesla_rate": 0.9 }, "geometry": { "type": "Point", "coordinates": [ -118.31, 34.05 ] } },
{ "type": "Feature", "properties": { "zip": "90008", "city": "Los Angeles", "state": "CA", "teslas": 30, "tesla_rate": 1.51 }, "geometry": { "type": "Point", "coordinates": [ -118.34, 34.0 ] } },
{ "type": "Feature", "properties": { "zip": "90012", "city": "Los Angeles", "state": "CA", "teslas": 57, "tesla_rate": 1.58 }, "geometry": { "type": "Point", "coordinates": [ -118.24, 34.06 ] } },
{ "type": "Feature", "properties": { "zip": "90014", "city": "Los Angeles", "state": "CA", "teslas": 12, "tesla_rate": 3.43 }, "geometry": { "type": "Point", "coordinates": [ -118.25, 34.04 ] } },
{ "type": "Feature", "properties": { "zip": "90015", "city": "Los Angeles", "state": "CA", "teslas": 61, "tesla_rate": 5.01 }, "geometry": { "type": "Point", "coordinates": [ -118.26, 34.03 ] } },
{ "type": "Feature", "properties": { "zip": "90016", "city": "Los Angeles", "state": "CA", "teslas": 17, "tesla_rate": 0.53 }, "geometry": { "type": "Point", "coordinates": [ -118.35, 34.02 ] } },
{ "type": "Feature", "properties": { "zip": "90017", "city": "Los Angeles", "state": "CA", "teslas": 37, "tesla_rate": 2.96 }, "geometry": { "type": "Point", "coordinates": [ -118.26, 34.05 ] } },
{ "type": "Feature", "properties": { "zip": "90019", "city": "Los Angeles", "state": "CA", "teslas": 61, "tesla_rate": 1.54 }, "geometry": { "type": "Point", "coordinates": [ -118.34, 34.04 ] } },
{ "type": "Feature", "properties": { "zip": "90020", "city": "Los Angeles", "state": "CA", "teslas": 50, "tesla_rate": 2.46 }, "geometry": { "type": "Point", "coordinates": [ -118.31, 34.06 ] } },
{ "type": "Feature", "properties": { "zip": "90024", "city": "Los Angeles", "state": "CA", "teslas": 313, "tesla_rate": 15.52 }, "geometry": { "type": "Point", "coordinates": [ -118.43, 34.06 ] } },
{ "type": "Feature", "properties": { "zip": "90025", "city": "Los Angeles", "state": "CA", "teslas": 272, "tesla_rate": 8.86 }, "geometry": { "type": "Point", "coordinates": [ -118.44, 34.04 ] } },
{ "type": "Feature", "properties": { "zip": "90026", "city": "Los Angeles", "state": "CA", "teslas": 50, "tesla_rate": 1.28 }, "geometry": { "type": "Point", "coordinates": [ -118.26, 34.07 ] } },
{ "type": "Feature", "properties": { "zip": "90027", "city": "Los Angeles", "state": "CA", "teslas": 190, "tesla_rate": 6.53 }, "geometry": { "type": "Point", "coordinates": [ -118.28, 34.12 ] } },
{ "type": "Feature", "properties": { "zip": "90028", "city": "Los Angeles", "state": "CA", "teslas": 46, "tesla_rate": 2.77 }, "geometry": { "type": "Point", "coordinates": [ -118.32, 34.1 ] } },
{ "type": "Feature", "properties": { "zip": "90031", "city": "Los Angeles", "state": "CA", "teslas": 12, "tesla_rate": 0.5 }, "geometry": { "type": "Point", "coordinates": [ -118.2, 34.08 ] } },
{ "type": "Feature", "properties": { "zip": "90032", "city": "Los Angeles", "state": "CA", "teslas": 16, "tesla_rate": 0.52 }, "geometry": { "type": "Point", "coordinates": [ -118.17, 34.08 ] } },
{ "type": "Feature", "properties": { "zip": "90034", "city": "Los Angeles", "state": "CA", "teslas": 133, "tesla_rate": 3.47 }, "geometry": { "type": "Point", "coordinates": [ -118.39, 34.02 ] } },
{ "type": "Feature", "properties": { "zip": "90035", "city": "Los Angeles", "state": "CA", "teslas": 72, "tesla_rate": 3.72 }, "geometry": { "type": "Point", "coordinates": [ -118.38, 34.05 ] } },
{ "type": "Feature", "properties": { "zip": "90036", "city": "Los Angeles", "state": "CA", "teslas": 103, "tesla_rate": 4.13 }, "geometry": { "type": "Point", "coordinates": [ -118.35, 34.06 ] } },
{ "type": "Feature", "properties": { "zip": "90038", "city": "Los Angeles", "state": "CA", "teslas": 13, "tesla_rate": 0.78 }, "geometry": { "type": "Point", "coordinates": [ -118.32, 34.08 ] } },
{ "type": "Feature", "properties": { "zip": "90039", "city": "Los Angeles", "state": "CA", "teslas": 76, "tesla_rate": 3.43 }, "geometry": { "type": "Point", "coordinates": [ -118.26, 34.11 ] } },
{ "type": "Feature", "properties": { "zip": "90040", "city": "Los Angeles", "state": "CA", "teslas": 11, "tesla_rate": 0.86 }, "geometry": { "type": "Point", "coordinates": [ -118.14, 33.99 ] } },
{ "type": "Feature", "properties": { "zip": "90041", "city": "Los Angeles", "state": "CA", "teslas": 23, "tesla_rate": 1.17 }, "geometry": { "type": "Point", "coordinates": [ -118.2, 34.13 ] } },
{ "type": "Feature", "properties": { "zip": "90042", "city": "Los Angeles", "state": "CA", "teslas": 49, "tesla_rate": 1.22 }, "geometry": { "type": "Point", "coordinates": [ -118.19, 34.11 ] } },
{ "type": "Feature", "properties": { "zip": "90043", "city": "Los Angeles", "state": "CA", "teslas": 22, "tesla_rate": 0.71 }, "geometry": { "type": "Point", "coordinates": [ -118.33, 33.98 ] } },
{ "type": "Feature", "properties": { "zip": "90045", "city": "Los Angeles", "state": "CA", "teslas": 178, "tesla_rate": 1.3 }, "geometry": { "type": "Point", "coordinates": [ -118.4, 33.95 ] } },
{ "type": "Feature", "properties": { "zip": "90046", "city": "Los Angeles", "state": "CA", "teslas": 286, "tesla_rate": 8.17 }, "geometry": { "type": "Point", "coordinates": [ -118.37, 34.1 ] } },
{ "type": "Feature", "properties": { "zip": "90047", "city": "Los Angeles", "state": "CA", "teslas": 14, "tesla_rate": 0.4 }, "geometry": { "type": "Point", "coordinates": [ -118.3, 33.95 ] } },
{ "type": "Feature", "properties": { "zip": "90048", "city": "Los Angeles", "state": "CA", "teslas": 170, "tesla_rate": 10.57 }, "geometry": { "type": "Point", "coordinates": [ -118.37, 34.07 ] } },
{ "type": "Feature", "properties": { "zip": "90049", "city": "Los Angeles", "state": "CA", "teslas": 748, "tesla_rate": 26.56 }, "geometry": { "type": "Point", "coordinates": [ -118.49, 34.08 ] } },
{ "type": "Feature", "properties": { "zip": "90056", "city": "Los Angeles", "state": "CA", "teslas": 44, "tesla_rate": 6.01 }, "geometry": { "type": "Point", "coordinates": [ -118.37, 33.98 ] } },
{ "type": "Feature", "properties": { "zip": "90058", "city": "Los Angeles", "state": "CA", "teslas": 11, "tesla_rate": 1.84 }, "geometry": { "type": "Point", "coordinates": [ -118.21, 34.0 ] } },
{ "type": "Feature", "properties": { "zip": "90064", "city": "Los Angeles", "state": "CA", "teslas": 292, "tesla_rate": 13.32 }, "geometry": { "type": "Point", "coordinates": [ -118.43, 34.03 ] } },
{ "type": "Feature", "properties": { "zip": "90065", "city": "Los Angeles", "state": "CA", "teslas": 50, "tesla_rate": 1.47 }, "geometry": { "type": "Point", "coordinates": [ -118.22, 34.1 ] } },
{ "type": "Feature", "properties": { "zip": "90066", "city": "Los Angeles", "state": "CA", "teslas": 236, "tesla_rate": 5.85 }, "geometry": { "type": "Point", "coordinates": [ -118.43, 34.0 ] } },
{ "type": "Feature", "properties": { "zip": "90067", "city": "Los Angeles", "state": "CA", "teslas": 162, "tesla_rate": 34.7 }, "geometry": { "type": "Point", "coordinates": [ -118.41, 34.05 ] } },
{ "type": "Feature", "properties": { "zip": "90068", "city": "Los Angeles", "state": "CA", "teslas": 229, "tesla_rate": 13.67 }, "geometry": { "type": "Point", "coordinates": [ -118.33, 34.13 ] } },
{ "type": "Feature", "properties": { "zip": "90069", "city": "West Hollywood", "state": "CA", "teslas": 215, "tesla_rate": 12.94 }, "geometry": { "type": "Point", "coordinates": [ -118.38, 34.09 ] } },
{ "type": "Feature", "properties": { "zip": "90077", "city": "Los Angeles", "state": "CA", "teslas": 258, "tesla_rate": 33.47 }, "geometry": { "type": "Point", "coordinates": [ -118.45, 34.1 ] } },
{ "type": "Feature", "properties": { "zip": "90094", "city": "Playa Vista", "state": "CA", "teslas": 161, "tesla_rate": 24.7 }, "geometry": { "type": "Point", "coordinates": [ -118.43, 33.97 ] } },
{ "type": "Feature", "properties": { "zip": "90210", "city": "Beverly Hills", "state": "CA", "teslas": 589, "tesla_rate": 31.45 }, "geometry": { "type": "Point", "coordinates": [ -118.41, 34.09 ] } },
{ "type": "Feature", "properties": { "zip": "90211", "city": "Beverly Hills", "state": "CA", "teslas": 111, "tesla_rate": 12.53 }, "geometry": { "type": "Point", "coordinates": [ -118.38, 34.06 ] } },
{ "type": "Feature", "properties": { "zip": "90212", "city": "Beverly Hills", "state": "CA", "teslas": 162, "tesla_rate": 15.39 }, "geometry": { "type": "Point", "coordinates": [ -118.4, 34.06 ] } },
{ "type": "Feature", "properties": { "zip": "90230", "city": "Culver City", "state": "CA", "teslas": 77, "tesla_rate": 3.12 }, "geometry": { "type": "Point", "coordinates": [ -118.39, 33.99 ] } },
{ "type": "Feature", "properties": { "zip": "90232", "city": "Culver City", "state": "CA", "teslas": 72, "tesla_rate": 5.45 }, "geometry": { "type": "Point", "coordinates": [ -118.39, 34.02 ] } },
{ "type": "Feature", "properties": { "zip": "90240", "city": "Downey", "state": "CA", "teslas": 27, "tesla_rate": 1.28 }, "geometry": { "type": "Point", "coordinates": [ -118.12, 33.95 ] } },
{ "type": "Feature", "properties": { "zip": "90241", "city": "Downey", "state": "CA", "teslas": 23, "tesla_rate": 0.67 }, "geometry": { "type": "Point", "coordinates": [ -118.13, 33.94 ] } },
{ "type": "Feature", "properties": { "zip": "90245", "city": "El Segundo", "state": "CA", "teslas": 111, "tesla_rate": 6.78 }, "geometry": { "type": "Point", "coordinates": [ -118.4, 33.91 ] } },
{ "type": "Feature", "properties": { "zip": "90247", "city": "Gardena", "state": "CA", "teslas": 14, "tesla_rate": 0.4 }, "geometry": { "type": "Point", "coordinates": [ -118.29, 33.89 ] } },
{ "type": "Feature", "properties": { "zip": "90248", "city": "Gardena", "state": "CA", "teslas": 29, "tesla_rate": 1.98 }, "geometry": { "type": "Point", "coordinates": [ -118.27, 33.88 ] } },
{ "type": "Feature", "properties": { "zip": "90250", "city": "Hawthorne", "state": "CA", "teslas": 82, "tesla_rate": 1.23 }, "geometry": { "type": "Point", "coordinates": [ -118.34, 33.91 ] } },
{ "type": "Feature", "properties": { "zip": "90254", "city": "Hermosa Beach", "state": "CA", "teslas": 229, "tesla_rate": 14.09 }, "geometry": { "type": "Point", "coordinates": [ -118.39, 33.86 ] } },
{ "type": "Feature", "properties": { "zip": "90260", "city": "Lawndale", "state": "CA", "teslas": 11, "tesla_rate": 0.44 }, "geometry": { "type": "Point", "coordinates": [ -118.35, 33.88 ] } },
{ "type": "Feature", "properties": { "zip": "90265", "city": "Malibu", "state": "CA", "teslas": 311, "tesla_rate": 20.41 }, "geometry": { "type": "Point", "coordinates": [ -118.81, 34.06 ] } },
{ "type": "Feature", "properties": { "zip": "90266", "city": "Manhattan Beach", "state": "CA", "teslas": 787, "tesla_rate": 26.51 }, "geometry": { "type": "Point", "coordinates": [ -118.4, 33.88 ] } },
{ "type": "Feature", "properties": { "zip": "90272", "city": "Pacific Palisades", "state": "CA", "teslas": 592, "tesla_rate": 31.43 }, "geometry": { "type": "Point", "coordinates": [ -118.54, 34.07 ] } },
{ "type": "Feature", "properties": { "zip": "90274", "city": "Palos Verdes Peninsula", "state": "CA", "teslas": 510, "tesla_rate": 20.9 }, "geometry": { "type": "Point", "coordinates": [ -118.34, 33.77 ] } },
{ "type": "Feature", "properties": { "zip": "90275", "city": "Rancho Palos Verdes", "state": "CA", "teslas": 423, "tesla_rate": 11.67 }, "geometry": { "type": "Point", "coordinates": [ -118.31, 33.75 ] } },
{ "type": "Feature", "properties": { "zip": "90277", "city": "Redondo Beach", "state": "CA", "teslas": 250, "tesla_rate": 8.31 }, "geometry": { "type": "Point", "coordinates": [ -118.38, 33.83 ] } },
{ "type": "Feature", "properties": { "zip": "90278", "city": "Redondo Beach", "state": "CA", "teslas": 263, "tesla_rate": 8.08 }, "geometry": { "type": "Point", "coordinates": [ -118.37, 33.87 ] } },
{ "type": "Feature", "properties": { "zip": "90290", "city": "Topanga", "state": "CA", "teslas": 53, "tesla_rate": 9.41 }, "geometry": { "type": "Point", "coordinates": [ -118.6, 34.1 ] } },
{ "type": "Feature", "properties": { "zip": "90291", "city": "Venice", "state": "CA", "teslas": 197, "tesla_rate": 10.21 }, "geometry": { "type": "Point", "coordinates": [ -118.46, 33.99 ] } },
{ "type": "Feature", "properties": { "zip": "90292", "city": "Marina Del Rey", "state": "CA", "teslas": 241, "tesla_rate": 12.78 }, "geometry": { "type": "Point", "coordinates": [ -118.43, 33.97 ] } },
{ "type": "Feature", "properties": { "zip": "90293", "city": "Playa Del Rey", "state": "CA", "teslas": 43, "tesla_rate": 4.37 }, "geometry": { "type": "Point", "coordinates": [ -118.44, 33.94 ] } },
{ "type": "Feature", "properties": { "zip": "90401", "city": "Santa Monica", "state": "CA", "teslas": 58, "tesla_rate": 8.63 }, "geometry": { "type": "Point", "coordinates": [ -118.49, 34.01 ] } },
{ "type": "Feature", "properties": { "zip": "90402", "city": "Santa Monica", "state": "CA", "teslas": 291, "tesla_rate": 32.02 }, "geometry": { "type": "Point", "coordinates": [ -118.5, 34.03 ] } },
{ "type": "Feature", "properties": { "zip": "90403", "city": "Santa Monica", "state": "CA", "teslas": 190, "tesla_rate": 10.21 }, "geometry": { "type": "Point", "coordinates": [ -118.49, 34.03 ] } },
{ "type": "Feature", "properties": { "zip": "90404", "city": "Santa Monica", "state": "CA", "teslas": 54, "tesla_rate": 3.44 }, "geometry": { "type": "Point", "coordinates": [ -118.47, 34.02 ] } },
{ "type": "Feature", "properties": { "zip": "90405", "city": "Santa Monica", "state": "CA", "teslas": 199, "tesla_rate": 9.41 }, "geometry": { "type": "Point", "coordinates": [ -118.46, 34.01 ] } },
{ "type": "Feature", "properties": { "zip": "90501", "city": "Torrance", "state": "CA", "teslas": 62, "tesla_rate": 1.67 }, "geometry": { "type": "Point", "coordinates": [ -118.31, 33.83 ] } },
{ "type": "Feature", "properties": { "zip": "90502", "city": "Torrance", "state": "CA", "teslas": 12, "tesla_rate": 0.8 }, "geometry": { "type": "Point", "coordinates": [ -118.29, 33.83 ] } },
{ "type": "Feature", "properties": { "zip": "90503", "city": "Torrance", "state": "CA", "teslas": 104, "tesla_rate": 2.86 }, "geometry": { "type": "Point", "coordinates": [ -118.35, 33.84 ] } },
{ "type": "Feature", "properties": { "zip": "90504", "city": "Torrance", "state": "CA", "teslas": 22, "tesla_rate": 0.79 }, "geometry": { "type": "Point", "coordinates": [ -118.33, 33.86 ] } },
{ "type": "Feature", "properties": { "zip": "90505", "city": "Torrance", "state": "CA", "teslas": 103, "tesla_rate": 3.28 }, "geometry": { "type": "Point", "coordinates": [ -118.35, 33.8 ] } },
{ "type": "Feature", "properties": { "zip": "90601", "city": "Whittier", "state": "CA", "teslas": 18, "tesla_rate": 0.68 }, "geometry": { "type": "Point", "coordinates": [ -118.03, 34.0 ] } },
{ "type": "Feature", "properties": { "zip": "90603", "city": "Whittier", "state": "CA", "teslas": 12, "tesla_rate": 0.71 }, "geometry": { "type": "Point", "coordinates": [ -117.99, 33.94 ] } },
{ "type": "Feature", "properties": { "zip": "90605", "city": "Whittier", "state": "CA", "teslas": 14, "tesla_rate": 0.44 }, "geometry": { "type": "Point", "coordinates": [ -118.03, 33.94 ] } },
{ "type": "Feature", "properties": { "zip": "90620", "city": "Buena Park", "state": "CA", "teslas": 23, "tesla_rate": 0.6 }, "geometry": { "type": "Point", "coordinates": [ -118.0, 33.84 ] } },
{ "type": "Feature", "properties": { "zip": "90621", "city": "Buena Park", "state": "CA", "teslas": 37, "tesla_rate": 1.33 }, "geometry": { "type": "Point", "coordinates": [ -117.99, 33.87 ] } },
{ "type": "Feature", "properties": { "zip": "90623", "city": "La Palma", "state": "CA", "teslas": 32, "tesla_rate": 2.41 }, "geometry": { "type": "Point", "coordinates": [ -118.04, 33.85 ] } },
{ "type": "Feature", "properties": { "zip": "90630", "city": "Cypress", "state": "CA", "teslas": 91, "tesla_rate": 2.19 }, "geometry": { "type": "Point", "coordinates": [ -118.03, 33.81 ] } },
{ "type": "Feature", "properties": { "zip": "90631", "city": "La Habra", "state": "CA", "teslas": 94, "tesla_rate": 1.72 }, "geometry": { "type": "Point", "coordinates": [ -117.95, 33.94 ] } },
{ "type": "Feature", "properties": { "zip": "90638", "city": "La Mirada", "state": "CA", "teslas": 34, "tesla_rate": 0.83 }, "geometry": { "type": "Point", "coordinates": [ -118.0, 33.9 ] } },
{ "type": "Feature", "properties": { "zip": "90640", "city": "Montebello", "state": "CA", "teslas": 20, "tesla_rate": 0.4 }, "geometry": { "type": "Point", "coordinates": [ -118.1, 34.0 ] } },
{ "type": "Feature", "properties": { "zip": "90650", "city": "Norwalk", "state": "CA", "teslas": 18, "tesla_rate": 0.24 }, "geometry": { "type": "Point", "coordinates": [ -118.07, 33.9 ] } },
{ "type": "Feature", "properties": { "zip": "90670", "city": "Santa Fe Springs", "state": "CA", "teslas": 32, "tesla_rate": 1.51 }, "geometry": { "type": "Point", "coordinates": [ -118.06, 33.92 ] } },
{ "type": "Feature", "properties": { "zip": "90680", "city": "Stanton", "state": "CA", "teslas": 14, "tesla_rate": 0.6 }, "geometry": { "type": "Point", "coordinates": [ -117.99, 33.79 ] } },
{ "type": "Feature", "properties": { "zip": "90703", "city": "Cerritos", "state": "CA", "teslas": 210, "tesla_rate": 4.64 }, "geometry": { "type": "Point", "coordinates": [ -118.05, 33.86 ] } },
{ "type": "Feature", "properties": { "zip": "90706", "city": "Bellflower", "state": "CA", "teslas": 11, "tesla_rate": 0.2 }, "geometry": { "type": "Point", "coordinates": [ -118.13, 33.88 ] } },
{ "type": "Feature", "properties": { "zip": "90710", "city": "Harbor City", "state": "CA", "teslas": 11, "tesla_rate": 0.55 }, "geometry": { "type": "Point", "coordinates": [ -118.29, 33.79 ] } },
{ "type": "Feature", "properties": { "zip": "90712", "city": "Lakewood", "state": "CA", "teslas": 14, "tesla_rate": 0.53 }, "geometry": { "type": "Point", "coordinates": [ -118.14, 33.84 ] } },
{ "type": "Feature", "properties": { "zip": "90713", "city": "Lakewood", "state": "CA", "teslas": 11, "tesla_rate": 0.46 }, "geometry": { "type": "Point", "coordinates": [ -118.11, 33.85 ] } },
{ "type": "Feature", "properties": { "zip": "90717", "city": "Lomita", "state": "CA", "teslas": 11, "tesla_rate": 0.65 }, "geometry": { "type": "Point", "coordinates": [ -118.31, 33.79 ] } },
{ "type": "Feature", "properties": { "zip": "90720", "city": "Los Alamitos", "state": "CA", "teslas": 102, "tesla_rate": 4.86 }, "geometry": { "type": "Point", "coordinates": [ -118.06, 33.79 ] } },
{ "type": "Feature", "properties": { "zip": "90731", "city": "San Pedro", "state": "CA", "teslas": 27, "tesla_rate": 0.64 }, "geometry": { "type": "Point", "coordinates": [ -118.29, 33.73 ] } },
{ "type": "Feature", "properties": { "zip": "90732", "city": "San Pedro", "state": "CA", "teslas": 20, "tesla_rate": 1.18 }, "geometry": { "type": "Point", "coordinates": [ -118.31, 33.73 ] } },
{ "type": "Feature", "properties": { "zip": "90740", "city": "Seal Beach", "state": "CA", "teslas": 111, "tesla_rate": 5.09 }, "geometry": { "type": "Point", "coordinates": [ -118.07, 33.75 ] } },
{ "type": "Feature", "properties": { "zip": "90745", "city": "Carson", "state": "CA", "teslas": 12, "tesla_rate": 0.26 }, "geometry": { "type": "Point", "coordinates": [ -118.26, 33.82 ] } },
{ "type": "Feature", "properties": { "zip": "90755", "city": "Signal Hill", "state": "CA", "teslas": 13, "tesla_rate": 1.1 }, "geometry": { "type": "Point", "coordinates": [ -118.16, 33.8 ] } },
{ "type": "Feature", "properties": { "zip": "90802", "city": "Long Beach", "state": "CA", "teslas": 19, "tesla_rate": 0.81 }, "geometry": { "type": "Point", "coordinates": [ -118.2, 33.75 ] } },
{ "type": "Feature", "properties": { "zip": "90803", "city": "Long Beach", "state": "CA", "teslas": 166, "tesla_rate": 6.46 }, "geometry": { "type": "Point", "coordinates": [ -118.13, 33.75 ] } },
{ "type": "Feature", "properties": { "zip": "90804", "city": "Long Beach", "state": "CA", "teslas": 12, "tesla_rate": 0.52 }, "geometry": { "type": "Point", "coordinates": [ -118.14, 33.78 ] } },
{ "type": "Feature", "properties": { "zip": "90807", "city": "Long Beach", "state": "CA", "teslas": 59, "tesla_rate": 2.29 }, "geometry": { "type": "Point", "coordinates": [ -118.18, 33.83 ] } },
{ "type": "Feature", "properties": { "zip": "90808", "city": "Long Beach", "state": "CA", "teslas": 53, "tesla_rate": 1.59 }, "geometry": { "type": "Point", "coordinates": [ -118.11, 33.82 ] } },
{ "type": "Feature", "properties": { "zip": "90814", "city": "Long Beach", "state": "CA", "teslas": 18, "tesla_rate": 1.35 }, "geometry": { "type": "Point", "coordinates": [ -118.14, 33.77 ] } },
{ "type": "Feature", "properties": { "zip": "90815", "city": "Long Beach", "state": "CA", "teslas": 30, "tesla_rate": 0.98 }, "geometry": { "type": "Point", "coordinates": [ -118.12, 33.79 ] } },
{ "type": "Feature", "properties": { "zip": "91001", "city": "Altadena", "state": "CA", "teslas": 134, "tesla_rate": 4.47 }, "geometry": { "type": "Point", "coordinates": [ -118.13, 34.2 ] } },
{ "type": "Feature", "properties": { "zip": "91006", "city": "Arcadia", "state": "CA", "teslas": 210, "tesla_rate": 7.86 }, "geometry": { "type": "Point", "coordinates": [ -118.02, 34.13 ] } },
{ "type": "Feature", "properties": { "zip": "91007", "city": "Arcadia", "state": "CA", "teslas": 148, "tesla_rate": 6.22 }, "geometry": { "type": "Point", "coordinates": [ -118.05, 34.12 ] } },
{ "type": "Feature", "properties": { "zip": "91010", "city": "Duarte", "state": "CA", "teslas": 11, "tesla_rate": 0.52 }, "geometry": { "type": "Point", "coordinates": [ -117.94, 34.13 ] } },
{ "type": "Feature", "properties": { "zip": "91011", "city": "La Canada Flintridge", "state": "CA", "teslas": 317, "tesla_rate": 16.95 }, "geometry": { "type": "Point", "coordinates": [ -118.14, 34.23 ] } },
{ "type": "Feature", "properties": { "zip": "91016", "city": "Monrovia", "state": "CA", "teslas": 61, "tesla_rate": 1.84 }, "geometry": { "type": "Point", "coordinates": [ -117.99, 34.15 ] } },
{ "type": "Feature", "properties": { "zip": "91024", "city": "Sierra Madre", "state": "CA", "teslas": 56, "tesla_rate": 6.0 }, "geometry": { "type": "Point", "coordinates": [ -118.05, 34.2 ] } },
{ "type": "Feature", "properties": { "zip": "91030", "city": "South Pasadena", "state": "CA", "teslas": 150, "tesla_rate": 7.61 }, "geometry": { "type": "Point", "coordinates": [ -118.15, 34.11 ] } },
{ "type": "Feature", "properties": { "zip": "91040", "city": "Sunland", "state": "CA", "teslas": 12, "tesla_rate": 0.64 }, "geometry": { "type": "Point", "coordinates": [ -118.32, 34.26 ] } },
{ "type": "Feature", "properties": { "zip": "91042", "city": "Tujunga", "state": "CA", "teslas": 17, "tesla_rate": 0.75 }, "geometry": { "type": "Point", "coordinates": [ -118.25, 34.29 ] } },
{ "type": "Feature", "properties": { "zip": "91101", "city": "Pasadena", "state": "CA", "teslas": 45, "tesla_rate": 3.37 }, "geometry": { "type": "Point", "coordinates": [ -118.13, 34.14 ] } },
{ "type": "Feature", "properties": { "zip": "91103", "city": "Pasadena", "state": "CA", "teslas": 91, "tesla_rate": 4.77 }, "geometry": { "type": "Point", "coordinates": [ -118.17, 34.17 ] } },
{ "type": "Feature", "properties": { "zip": "91104", "city": "Pasadena", "state": "CA", "teslas": 84, "tesla_rate": 3.22 }, "geometry": { "type": "Point", "coordinates": [ -118.12, 34.16 ] } },
{ "type": "Feature", "properties": { "zip": "91105", "city": "Pasadena", "state": "CA", "teslas": 146, "tesla_rate": 12.8 }, "geometry": { "type": "Point", "coordinates": [ -118.16, 34.14 ] } },
{ "type": "Feature", "properties": { "zip": "91106", "city": "Pasadena", "state": "CA", "teslas": 122, "tesla_rate": 6.95 }, "geometry": { "type": "Point", "coordinates": [ -118.13, 34.13 ] } },
{ "type": "Feature", "properties": { "zip": "91107", "city": "Pasadena", "state": "CA", "teslas": 166, "tesla_rate": 5.95 }, "geometry": { "type": "Point", "coordinates": [ -118.08, 34.16 ] } },
{ "type": "Feature", "properties": { "zip": "91108", "city": "San Marino", "state": "CA", "teslas": 266, "tesla_rate": 23.78 }, "geometry": { "type": "Point", "coordinates": [ -118.11, 34.12 ] } },
{ "type": "Feature", "properties": { "zip": "91201", "city": "Glendale", "state": "CA", "teslas": 12, "tesla_rate": 0.64 }, "geometry": { "type": "Point", "coordinates": [ -118.29, 34.17 ] } },
{ "type": "Feature", "properties": { "zip": "91202", "city": "Glendale", "state": "CA", "teslas": 51, "tesla_rate": 2.9 }, "geometry": { "type": "Point", "coordinates": [ -118.26, 34.16 ] } },
{ "type": "Feature", "properties": { "zip": "91203", "city": "Glendale", "state": "CA", "teslas": 22, "tesla_rate": 1.98 }, "geometry": { "type": "Point", "coordinates": [ -118.26, 34.15 ] } },
{ "type": "Feature", "properties": { "zip": "91205", "city": "Glendale", "state": "CA", "teslas": 12, "tesla_rate": 0.49 }, "geometry": { "type": "Point", "coordinates": [ -118.24, 34.13 ] } },
{ "type": "Feature", "properties": { "zip": "91206", "city": "Glendale", "state": "CA", "teslas": 74, "tesla_rate": 2.96 }, "geometry": { "type": "Point", "coordinates": [ -118.2, 34.16 ] } },
{ "type": "Feature", "properties": { "zip": "91207", "city": "Glendale", "state": "CA", "teslas": 26, "tesla_rate": 3.07 }, "geometry": { "type": "Point", "coordinates": [ -118.25, 34.18 ] } },
{ "type": "Feature", "properties": { "zip": "91208", "city": "Glendale", "state": "CA", "teslas": 53, "tesla_rate": 3.75 }, "geometry": { "type": "Point", "coordinates": [ -118.24, 34.19 ] } },
{ "type": "Feature", "properties": { "zip": "91214", "city": "La Crescenta", "state": "CA", "teslas": 65, "tesla_rate": 2.43 }, "geometry": { "type": "Point", "coordinates": [ -118.24, 34.23 ] } },
{ "type": "Feature", "properties": { "zip": "91301", "city": "Agoura Hills", "state": "CA", "teslas": 175, "tesla_rate": 7.73 }, "geometry": { "type": "Point", "coordinates": [ -118.76, 34.12 ] } },
{ "type": "Feature", "properties": { "zip": "91302", "city": "Calabasas", "state": "CA", "teslas": 453, "tesla_rate": 19.36 }, "geometry": { "type": "Point", "coordinates": [ -118.67, 34.11 ] } },
{ "type": "Feature", "properties": { "zip": "91304", "city": "Canoga Park", "state": "CA", "teslas": 49, "tesla_rate": 1.32 }, "geometry": { "type": "Point", "coordinates": [ -118.59, 34.22 ] } },
{ "type": "Feature", "properties": { "zip": "91306", "city": "Winnetka", "state": "CA", "teslas": 27, "tesla_rate": 0.77 }, "geometry": { "type": "Point", "coordinates": [ -118.57, 34.2 ] } },
{ "type": "Feature", "properties": { "zip": "91307", "city": "West Hills", "state": "CA", "teslas": 121, "tesla_rate": 5.62 }, "geometry": { "type": "Point", "coordinates": [ -118.69, 34.2 ] } },
{ "type": "Feature", "properties": { "zip": "91311", "city": "Chatsworth", "state": "CA", "teslas": 95, "tesla_rate": 2.84 }, "geometry": { "type": "Point", "coordinates": [ -118.61, 34.28 ] } },
{ "type": "Feature", "properties": { "zip": "91316", "city": "Encino", "state": "CA", "teslas": 161, "tesla_rate": 7.35 }, "geometry": { "type": "Point", "coordinates": [ -118.52, 34.15 ] } },
{ "type": "Feature", "properties": { "zip": "91320", "city": "Newbury Park", "state": "CA", "teslas": 221, "tesla_rate": 5.55 }, "geometry": { "type": "Point", "coordinates": [ -118.95, 34.17 ] } },
{ "type": "Feature", "properties": { "zip": "91321", "city": "Newhall", "state": "CA", "teslas": 23, "tesla_rate": 0.86 }, "geometry": { "type": "Point", "coordinates": [ -118.47, 34.36 ] } },
{ "type": "Feature", "properties": { "zip": "91324", "city": "Northridge", "state": "CA", "teslas": 27, "tesla_rate": 1.22 }, "geometry": { "type": "Point", "coordinates": [ -118.55, 34.24 ] } },
{ "type": "Feature", "properties": { "zip": "91325", "city": "Northridge", "state": "CA", "teslas": 47, "tesla_rate": 1.85 }, "geometry": { "type": "Point", "coordinates": [ -118.51, 34.23 ] } },
{ "type": "Feature", "properties": { "zip": "91326", "city": "Porter Ranch", "state": "CA", "teslas": 283, "tesla_rate": 9.35 }, "geometry": { "type": "Point", "coordinates": [ -118.55, 34.28 ] } },
{ "type": "Feature", "properties": { "zip": "91335", "city": "Reseda", "state": "CA", "teslas": 26, "tesla_rate": 0.46 }, "geometry": { "type": "Point", "coordinates": [ -118.54, 34.2 ] } },
{ "type": "Feature", "properties": { "zip": "91342", "city": "Sylmar", "state": "CA", "teslas": 19, "tesla_rate": 0.25 }, "geometry": { "type": "Point", "coordinates": [ -118.38, 34.32 ] } },
{ "type": "Feature", "properties": { "zip": "91343", "city": "North Hills", "state": "CA", "teslas": 26, "tesla_rate": 0.59 }, "geometry": { "type": "Point", "coordinates": [ -118.47, 34.23 ] } },
{ "type": "Feature", "properties": { "zip": "91344", "city": "Granada Hills", "state": "CA", "teslas": 140, "tesla_rate": 3.17 }, "geometry": { "type": "Point", "coordinates": [ -118.5, 34.29 ] } },
{ "type": "Feature", "properties": { "zip": "91350", "city": "Santa Clarita", "state": "CA", "teslas": 102, "tesla_rate": 3.1 }, "geometry": { "type": "Point", "coordinates": [ -118.51, 34.43 ] } },
{ "type": "Feature", "properties": { "zip": "91351", "city": "Canyon Country", "state": "CA", "teslas": 24, "tesla_rate": 0.86 }, "geometry": { "type": "Point", "coordinates": [ -118.46, 34.43 ] } },
{ "type": "Feature", "properties": { "zip": "91354", "city": "Valencia", "state": "CA", "teslas": 109, "tesla_rate": 4.28 }, "geometry": { "type": "Point", "coordinates": [ -118.57, 34.46 ] } },
{ "type": "Feature", "properties": { "zip": "91355", "city": "Valencia", "state": "CA", "teslas": 86, "tesla_rate": 2.96 }, "geometry": { "type": "Point", "coordinates": [ -118.56, 34.41 ] } },
{ "type": "Feature", "properties": { "zip": "91356", "city": "Tarzana", "state": "CA", "teslas": 200, "tesla_rate": 8.43 }, "geometry": { "type": "Point", "coordinates": [ -118.54, 34.15 ] } },
{ "type": "Feature", "properties": { "zip": "91360", "city": "Thousand Oaks", "state": "CA", "teslas": 64, "tesla_rate": 1.74 }, "geometry": { "type": "Point", "coordinates": [ -118.88, 34.21 ] } },
{ "type": "Feature", "properties": { "zip": "91361", "city": "Westlake Village", "state": "CA", "teslas": 222, "tesla_rate": 11.65 }, "geometry": { "type": "Point", "coordinates": [ -118.89, 34.14 ] } },
{ "type": "Feature", "properties": { "zip": "91362", "city": "Thousand Oaks", "state": "CA", "teslas": 279, "tesla_rate": 8.01 }, "geometry": { "type": "Point", "coordinates": [ -118.81, 34.19 ] } },
{ "type": "Feature", "properties": { "zip": "91364", "city": "Woodland Hills", "state": "CA", "teslas": 162, "tesla_rate": 7.1 }, "geometry": { "type": "Point", "coordinates": [ -118.6, 34.15 ] } },
{ "type": "Feature", "properties": { "zip": "91367", "city": "Woodland Hills", "state": "CA", "teslas": 200, "tesla_rate": 5.84 }, "geometry": { "type": "Point", "coordinates": [ -118.61, 34.17 ] } },
{ "type": "Feature", "properties": { "zip": "91377", "city": "Oak Park", "state": "CA", "teslas": 74, "tesla_rate": 6.2 }, "geometry": { "type": "Point", "coordinates": [ -118.76, 34.19 ] } },
{ "type": "Feature", "properties": { "zip": "91381", "city": "Stevenson Ranch", "state": "CA", "teslas": 133, "tesla_rate": 8.42 }, "geometry": { "type": "Point", "coordinates": [ -118.61, 34.37 ] } },
{ "type": "Feature", "properties": { "zip": "91384", "city": "Castaic", "state": "CA", "teslas": 27, "tesla_rate": 1.37 }, "geometry": { "type": "Point", "coordinates": [ -118.68, 34.51 ] } },
{ "type": "Feature", "properties": { "zip": "91387", "city": "Canyon Country", "state": "CA", "teslas": 66, "tesla_rate": 1.94 }, "geometry": { "type": "Point", "coordinates": [ -118.4, 34.4 ] } },
{ "type": "Feature", "properties": { "zip": "91390", "city": "Santa Clarita", "state": "CA", "teslas": 22, "tesla_rate": 1.23 }, "geometry": { "type": "Point", "coordinates": [ -118.4, 34.53 ] } },
{ "type": "Feature", "properties": { "zip": "91401", "city": "Van Nuys", "state": "CA", "teslas": 30, "tesla_rate": 1.03 }, "geometry": { "type": "Point", "coordinates": [ -118.43, 34.17 ] } },
{ "type": "Feature", "properties": { "zip": "91403", "city": "Sherman Oaks", "state": "CA", "teslas": 203, "tesla_rate": 10.17 }, "geometry": { "type": "Point", "coordinates": [ -118.46, 34.14 ] } },
{ "type": "Feature", "properties": { "zip": "91405", "city": "Van Nuys", "state": "CA", "teslas": 12, "tesla_rate": 0.29 }, "geometry": { "type": "Point", "coordinates": [ -118.44, 34.2 ] } },
{ "type": "Feature", "properties": { "zip": "91406", "city": "Van Nuys", "state": "CA", "teslas": 41, "tesla_rate": 0.99 }, "geometry": { "type": "Point", "coordinates": [ -118.49, 34.19 ] } },
{ "type": "Feature", "properties": { "zip": "91411", "city": "Van Nuys", "state": "CA", "teslas": 17, "tesla_rate": 1.01 }, "geometry": { "type": "Point", "coordinates": [ -118.46, 34.17 ] } },
{ "type": "Feature", "properties": { "zip": "91423", "city": "Sherman Oaks", "state": "CA", "teslas": 228, "tesla_rate": 9.12 }, "geometry": { "type": "Point", "coordinates": [ -118.42, 34.14 ] } },
{ "type": "Feature", "properties": { "zip": "91436", "city": "Encino", "state": "CA", "teslas": 360, "tesla_rate": 24.51 }, "geometry": { "type": "Point", "coordinates": [ -118.49, 34.15 ] } },
{ "type": "Feature", "properties": { "zip": "91501", "city": "Burbank", "state": "CA", "teslas": 30, "tesla_rate": 1.89 }, "geometry": { "type": "Point", "coordinates": [ -118.29, 34.19 ] } },
{ "type": "Feature", "properties": { "zip": "91504", "city": "Burbank", "state": "CA", "teslas": 59, "tesla_rate": 2.77 }, "geometry": { "type": "Point", "coordinates": [ -118.3, 34.2 ] } },
{ "type": "Feature", "properties": { "zip": "91505", "city": "Burbank", "state": "CA", "teslas": 78, "tesla_rate": 2.92 }, "geometry": { "type": "Point", "coordinates": [ -118.34, 34.17 ] } },
{ "type": "Feature", "properties": { "zip": "91506", "city": "Burbank", "state": "CA", "teslas": 26, "tesla_rate": 1.6 }, "geometry": { "type": "Point", "coordinates": [ -118.32, 34.17 ] } },
{ "type": "Feature", "properties": { "zip": "91601", "city": "North Hollywood", "state": "CA", "teslas": 22, "tesla_rate": 0.85 }, "geometry": { "type": "Point", "coordinates": [ -118.37, 34.16 ] } },
{ "type": "Feature", "properties": { "zip": "91602", "city": "North Hollywood", "state": "CA", "teslas": 93, "tesla_rate": 6.1 }, "geometry": { "type": "Point", "coordinates": [ -118.36, 34.15 ] } },
{ "type": "Feature", "properties": { "zip": "91604", "city": "Studio City", "state": "CA", "teslas": 277, "tesla_rate": 11.65 }, "geometry": { "type": "Point", "coordinates": [ -118.39, 34.13 ] } },
{ "type": "Feature", "properties": { "zip": "91605", "city": "North Hollywood", "state": "CA", "teslas": 13, "tesla_rate": 0.31 }, "geometry": { "type": "Point", "coordinates": [ -118.39, 34.2 ] } },
{ "type": "Feature", "properties": { "zip": "91606", "city": "North Hollywood", "state": "CA", "teslas": 16, "tesla_rate": 0.51 }, "geometry": { "type": "Point", "coordinates": [ -118.39, 34.18 ] } },
{ "type": "Feature", "properties": { "zip": "91607", "city": "Valley Village", "state": "CA", "teslas": 48, "tesla_rate": 2.22 }, "geometry": { "type": "Point", "coordinates": [ -118.4, 34.16 ] } },
{ "type": "Feature", "properties": { "zip": "91701", "city": "Rancho Cucamonga", "state": "CA", "teslas": 20, "tesla_rate": 0.59 }, "geometry": { "type": "Point", "coordinates": [ -117.61, 34.14 ] } },
{ "type": "Feature", "properties": { "zip": "91702", "city": "Azusa", "state": "CA", "teslas": 45, "tesla_rate": 1.02 }, "geometry": { "type": "Point", "coordinates": [ -117.87, 34.17 ] } },
{ "type": "Feature", "properties": { "zip": "91706", "city": "Baldwin Park", "state": "CA", "teslas": 24, "tesla_rate": 0.4 }, "geometry": { "type": "Point", "coordinates": [ -117.96, 34.09 ] } },
{ "type": "Feature", "properties": { "zip": "91708", "city": "Chino", "state": "CA", "teslas": 15, "tesla_rate": 1.92 }, "geometry": { "type": "Point", "coordinates": [ -117.68, 34.02 ] } },
{ "type": "Feature", "properties": { "zip": "91709", "city": "Chino Hills", "state": "CA", "teslas": 269, "tesla_rate": 4.19 }, "geometry": { "type": "Point", "coordinates": [ -117.72, 33.94 ] } },
{ "type": "Feature", "properties": { "zip": "91710", "city": "Chino", "state": "CA", "teslas": 101, "tesla_rate": 1.45 }, "geometry": { "type": "Point", "coordinates": [ -117.65, 33.98 ] } },
{ "type": "Feature", "properties": { "zip": "91711", "city": "Claremont", "state": "CA", "teslas": 137, "tesla_rate": 5.18 }, "geometry": { "type": "Point", "coordinates": [ -117.71, 34.12 ] } },
{ "type": "Feature", "properties": { "zip": "91724", "city": "Covina", "state": "CA", "teslas": 13, "tesla_rate": 0.59 }, "geometry": { "type": "Point", "coordinates": [ -117.84, 34.07 ] } },
{ "type": "Feature", "properties": { "zip": "91730", "city": "Rancho Cucamonga", "state": "CA", "teslas": 53, "tesla_rate": 0.99 }, "geometry": { "type": "Point", "coordinates": [ -117.58, 34.09 ] } },
{ "type": "Feature", "properties": { "zip": "91731", "city": "El Monte", "state": "CA", "teslas": 14, "tesla_rate": 0.67 }, "geometry": { "type": "Point", "coordinates": [ -118.03, 34.08 ] } },
{ "type": "Feature", "properties": { "zip": "91732", "city": "El Monte", "state": "CA", "teslas": 11, "tesla_rate": 0.26 }, "geometry": { "type": "Point", "coordinates": [ -118.01, 34.07 ] } },
{ "type": "Feature", "properties": { "zip": "91733", "city": "South El Monte", "state": "CA", "teslas": 15, "tesla_rate": 0.46 }, "geometry": { "type": "Point", "coordinates": [ -118.04, 34.04 ] } },
{ "type": "Feature", "properties": { "zip": "91737", "city": "Rancho Cucamonga", "state": "CA", "teslas": 43, "tesla_rate": 2.03 }, "geometry": { "type": "Point", "coordinates": [ -117.61, 34.19 ] } },
{ "type": "Feature", "properties": { "zip": "91739", "city": "Rancho Cucamonga", "state": "CA", "teslas": 135, "tesla_rate": 4.41 }, "geometry": { "type": "Point", "coordinates": [ -117.51, 34.14 ] } },
{ "type": "Feature", "properties": { "zip": "91740", "city": "Glendora", "state": "CA", "teslas": 11, "tesla_rate": 0.51 }, "geometry": { "type": "Point", "coordinates": [ -117.85, 34.11 ] } },
{ "type": "Feature", "properties": { "zip": "91741", "city": "Glendora", "state": "CA", "teslas": 51, "tesla_rate": 2.19 }, "geometry": { "type": "Point", "coordinates": [ -117.85, 34.14 ] } },
{ "type": "Feature", "properties": { "zip": "91745", "city": "Hacienda Heights", "state": "CA", "teslas": 118, "tesla_rate": 2.57 }, "geometry": { "type": "Point", "coordinates": [ -117.97, 34.0 ] } },
{ "type": "Feature", "properties": { "zip": "91748", "city": "Rowland Heights", "state": "CA", "teslas": 148, "tesla_rate": 3.89 }, "geometry": { "type": "Point", "coordinates": [ -117.9, 33.97 ] } },
{ "type": "Feature", "properties": { "zip": "91750", "city": "La Verne", "state": "CA", "teslas": 34, "tesla_rate": 1.16 }, "geometry": { "type": "Point", "coordinates": [ -117.76, 34.15 ] } },
{ "type": "Feature", "properties": { "zip": "91752", "city": "Mira Loma", "state": "CA", "teslas": 20, "tesla_rate": 0.66 }, "geometry": { "type": "Point", "coordinates": [ -117.53, 33.99 ] } },
{ "type": "Feature", "properties": { "zip": "91754", "city": "Monterey Park", "state": "CA", "teslas": 73, "tesla_rate": 2.7 }, "geometry": { "type": "Point", "coordinates": [ -118.14, 34.05 ] } },
{ "type": "Feature", "properties": { "zip": "91755", "city": "Monterey Park", "state": "CA", "teslas": 34, "tesla_rate": 1.59 }, "geometry": { "type": "Point", "coordinates": [ -118.11, 34.05 ] } },
{ "type": "Feature", "properties": { "zip": "91761", "city": "Ontario", "state": "CA", "teslas": 34, "tesla_rate": 0.62 }, "geometry": { "type": "Point", "coordinates": [ -117.58, 34.02 ] } },
{ "type": "Feature", "properties": { "zip": "91762", "city": "Ontario", "state": "CA", "teslas": 17, "tesla_rate": 0.36 }, "geometry": { "type": "Point", "coordinates": [ -117.67, 34.04 ] } },
{ "type": "Feature", "properties": { "zip": "91764", "city": "Ontario", "state": "CA", "teslas": 11, "tesla_rate": 0.28 }, "geometry": { "type": "Point", "coordinates": [ -117.62, 34.07 ] } },
{ "type": "Feature", "properties": { "zip": "91765", "city": "Diamond Bar", "state": "CA", "teslas": 260, "tesla_rate": 6.58 }, "geometry": { "type": "Point", "coordinates": [ -117.81, 33.99 ] } },
{ "type": "Feature", "properties": { "zip": "91766", "city": "Pomona", "state": "CA", "teslas": 23, "tesla_rate": 0.44 }, "geometry": { "type": "Point", "coordinates": [ -117.75, 34.03 ] } },
{ "type": "Feature", "properties": { "zip": "91770", "city": "Rosemead", "state": "CA", "teslas": 57, "tesla_rate": 1.11 }, "geometry": { "type": "Point", "coordinates": [ -118.08, 34.06 ] } },
{ "type": "Feature", "properties": { "zip": "91773", "city": "San Dimas", "state": "CA", "teslas": 28, "tesla_rate": 0.95 }, "geometry": { "type": "Point", "coordinates": [ -117.81, 34.1 ] } },
{ "type": "Feature", "properties": { "zip": "91775", "city": "San Gabriel", "state": "CA", "teslas": 64, "tesla_rate": 3.47 }, "geometry": { "type": "Point", "coordinates": [ -118.08, 34.11 ] } },
{ "type": "Feature", "properties": { "zip": "91776", "city": "San Gabriel", "state": "CA", "teslas": 60, "tesla_rate": 1.99 }, "geometry": { "type": "Point", "coordinates": [ -118.09, 34.08 ] } },
{ "type": "Feature", "properties": { "zip": "91780", "city": "Temple City", "state": "CA", "teslas": 109, "tesla_rate": 3.89 }, "geometry": { "type": "Point", "coordinates": [ -118.05, 34.1 ] } },
{ "type": "Feature", "properties": { "zip": "91784", "city": "Upland", "state": "CA", "teslas": 81, "tesla_rate": 3.2 }, "geometry": { "type": "Point", "coordinates": [ -117.65, 34.14 ] } },
{ "type": "Feature", "properties": { "zip": "91786", "city": "Upland", "state": "CA", "teslas": 27, "tesla_rate": 0.67 }, "geometry": { "type": "Point", "coordinates": [ -117.66, 34.1 ] } },
{ "type": "Feature", "properties": { "zip": "91789", "city": "Walnut", "state": "CA", "teslas": 254, "tesla_rate": 6.74 }, "geometry": { "type": "Point", "coordinates": [ -117.85, 34.01 ] } },
{ "type": "Feature", "properties": { "zip": "91790", "city": "West Covina", "state": "CA", "teslas": 37, "tesla_rate": 1.02 }, "geometry": { "type": "Point", "coordinates": [ -117.94, 34.06 ] } },
{ "type": "Feature", "properties": { "zip": "91791", "city": "West Covina", "state": "CA", "teslas": 81, "tesla_rate": 2.96 }, "geometry": { "type": "Point", "coordinates": [ -117.89, 34.06 ] } },
{ "type": "Feature", "properties": { "zip": "91792", "city": "West Covina", "state": "CA", "teslas": 15, "tesla_rate": 0.67 }, "geometry": { "type": "Point", "coordinates": [ -117.89, 34.02 ] } },
{ "type": "Feature", "properties": { "zip": "91801", "city": "Alhambra", "state": "CA", "teslas": 45, "tesla_rate": 1.18 }, "geometry": { "type": "Point", "coordinates": [ -118.13, 34.09 ] } },
{ "type": "Feature", "properties": { "zip": "91803", "city": "Alhambra", "state": "CA", "teslas": 37, "tesla_rate": 1.57 }, "geometry": { "type": "Point", "coordinates": [ -118.14, 34.07 ] } },
{ "type": "Feature", "properties": { "zip": "91902", "city": "Bonita", "state": "CA", "teslas": 15, "tesla_rate": 0.89 }, "geometry": { "type": "Point", "coordinates": [ -117.01, 32.67 ] } },
{ "type": "Feature", "properties": { "zip": "91910", "city": "Chula Vista", "state": "CA", "teslas": 40, "tesla_rate": 0.64 }, "geometry": { "type": "Point", "coordinates": [ -117.05, 32.63 ] } },
{ "type": "Feature", "properties": { "zip": "91911", "city": "Chula Vista", "state": "CA", "teslas": 13, "tesla_rate": 0.18 }, "geometry": { "type": "Point", "coordinates": [ -117.03, 32.61 ] } },
{ "type": "Feature", "properties": { "zip": "91913", "city": "Chula Vista", "state": "CA", "teslas": 35, "tesla_rate": 0.95 }, "geometry": { "type": "Point", "coordinates": [ -116.98, 32.64 ] } },
{ "type": "Feature", "properties": { "zip": "91914", "city": "Chula Vista", "state": "CA", "teslas": 56, "tesla_rate": 3.95 }, "geometry": { "type": "Point", "coordinates": [ -116.94, 32.66 ] } },
{ "type": "Feature", "properties": { "zip": "91915", "city": "Chula Vista", "state": "CA", "teslas": 29, "tesla_rate": 1.28 }, "geometry": { "type": "Point", "coordinates": [ -116.93, 32.6 ] } },
{ "type": "Feature", "properties": { "zip": "91935", "city": "Jamul", "state": "CA", "teslas": 15, "tesla_rate": 1.59 }, "geometry": { "type": "Point", "coordinates": [ -116.8, 32.69 ] } },
{ "type": "Feature", "properties": { "zip": "91941", "city": "La Mesa", "state": "CA", "teslas": 71, "tesla_rate": 2.6 }, "geometry": { "type": "Point", "coordinates": [ -116.99, 32.75 ] } },
{ "type": "Feature", "properties": { "zip": "91942", "city": "La Mesa", "state": "CA", "teslas": 17, "tesla_rate": 0.56 }, "geometry": { "type": "Point", "coordinates": [ -117.01, 32.78 ] } },
{ "type": "Feature", "properties": { "zip": "91977", "city": "Spring Valley", "state": "CA", "teslas": 14, "tesla_rate": 0.29 }, "geometry": { "type": "Point", "coordinates": [ -116.99, 32.71 ] } },
{ "type": "Feature", "properties": { "zip": "92007", "city": "Cardiff By The Sea", "state": "CA", "teslas": 35, "tesla_rate": 3.57 }, "geometry": { "type": "Point", "coordinates": [ -117.27, 33.01 ] } },
{ "type": "Feature", "properties": { "zip": "92008", "city": "Carlsbad", "state": "CA", "teslas": 114, "tesla_rate": 4.47 }, "geometry": { "type": "Point", "coordinates": [ -117.3, 33.13 ] } },
{ "type": "Feature", "properties": { "zip": "92009", "city": "Carlsbad", "state": "CA", "teslas": 324, "tesla_rate": 8.89 }, "geometry": { "type": "Point", "coordinates": [ -117.27, 33.09 ] } },
{ "type": "Feature", "properties": { "zip": "92010", "city": "Carlsbad", "state": "CA", "teslas": 53, "tesla_rate": 3.84 }, "geometry": { "type": "Point", "coordinates": [ -117.28, 33.15 ] } },
{ "type": "Feature", "properties": { "zip": "92011", "city": "Carlsbad", "state": "CA", "teslas": 173, "tesla_rate": 8.5 }, "geometry": { "type": "Point", "coordinates": [ -117.29, 33.1 ] } },
{ "type": "Feature", "properties": { "zip": "92014", "city": "Del Mar", "state": "CA", "teslas": 239, "tesla_rate": 18.25 }, "geometry": { "type": "Point", "coordinates": [ -117.25, 32.96 ] } },
{ "type": "Feature", "properties": { "zip": "92019", "city": "El Cajon", "state": "CA", "teslas": 23, "tesla_rate": 0.64 }, "geometry": { "type": "Point", "coordinates": [ -116.86, 32.77 ] } },
{ "type": "Feature", "properties": { "zip": "92020", "city": "El Cajon", "state": "CA", "teslas": 16, "tesla_rate": 0.35 }, "geometry": { "type": "Point", "coordinates": [ -116.96, 32.79 ] } },
{ "type": "Feature", "properties": { "zip": "92021", "city": "El Cajon", "state": "CA", "teslas": 14, "tesla_rate": 0.27 }, "geometry": { "type": "Point", "coordinates": [ -116.88, 32.84 ] } },
{ "type": "Feature", "properties": { "zip": "92024", "city": "Encinitas", "state": "CA", "teslas": 393, "tesla_rate": 8.57 }, "geometry": { "type": "Point", "coordinates": [ -117.25, 33.05 ] } },
{ "type": "Feature", "properties": { "zip": "92025", "city": "Escondido", "state": "CA", "teslas": 22, "tesla_rate": 0.56 }, "geometry": { "type": "Point", "coordinates": [ -116.94, 33.09 ] } },
{ "type": "Feature", "properties": { "zip": "92026", "city": "Escondido", "state": "CA", "teslas": 36, "tesla_rate": 0.87 }, "geometry": { "type": "Point", "coordinates": [ -117.1, 33.22 ] } },
{ "type": "Feature", "properties": { "zip": "92027", "city": "Escondido", "state": "CA", "teslas": 34, "tesla_rate": 0.79 }, "geometry": { "type": "Point", "coordinates": [ -116.98, 33.13 ] } },
{ "type": "Feature", "properties": { "zip": "92028", "city": "Fallbrook", "state": "CA", "teslas": 29, "tesla_rate": 0.67 }, "geometry": { "type": "Point", "coordinates": [ -117.29, 33.39 ] } },
{ "type": "Feature", "properties": { "zip": "92029", "city": "Escondido", "state": "CA", "teslas": 42, "tesla_rate": 1.93 }, "geometry": { "type": "Point", "coordinates": [ -117.13, 33.08 ] } },
{ "type": "Feature", "properties": { "zip": "92037", "city": "La Jolla", "state": "CA", "teslas": 566, "tesla_rate": 17.64 }, "geometry": { "type": "Point", "coordinates": [ -117.24, 32.86 ] } },
{ "type": "Feature", "properties": { "zip": "92054", "city": "Oceanside", "state": "CA", "teslas": 26, "tesla_rate": 0.86 }, "geometry": { "type": "Point", "coordinates": [ -117.43, 33.35 ] } },
{ "type": "Feature", "properties": { "zip": "92056", "city": "Oceanside", "state": "CA", "teslas": 34, "tesla_rate": 0.77 }, "geometry": { "type": "Point", "coordinates": [ -117.29, 33.2 ] } },
{ "type": "Feature", "properties": { "zip": "92057", "city": "Oceanside", "state": "CA", "teslas": 36, "tesla_rate": 0.82 }, "geometry": { "type": "Point", "coordinates": [ -117.28, 33.27 ] } },
{ "type": "Feature", "properties": { "zip": "92064", "city": "Poway", "state": "CA", "teslas": 200, "tesla_rate": 4.56 }, "geometry": { "type": "Point", "coordinates": [ -117.02, 32.97 ] } },
{ "type": "Feature", "properties": { "zip": "92065", "city": "Ramona", "state": "CA", "teslas": 16, "tesla_rate": 0.46 }, "geometry": { "type": "Point", "coordinates": [ -116.83, 33.07 ] } },
{ "type": "Feature", "properties": { "zip": "92067", "city": "Rancho Santa Fe", "state": "CA", "teslas": 338, "tesla_rate": 31.39 }, "geometry": { "type": "Point", "coordinates": [ -117.19, 33.02 ] } },
{ "type": "Feature", "properties": { "zip": "92069", "city": "San Marcos", "state": "CA", "teslas": 29, "tesla_rate": 0.74 }, "geometry": { "type": "Point", "coordinates": [ -117.17, 33.15 ] } },
{ "type": "Feature", "properties": { "zip": "92071", "city": "Santee", "state": "CA", "teslas": 26, "tesla_rate": 0.56 }, "geometry": { "type": "Point", "coordinates": [ -116.99, 32.85 ] } },
{ "type": "Feature", "properties": { "zip": "92075", "city": "Solana Beach", "state": "CA", "teslas": 128, "tesla_rate": 11.36 }, "geometry": { "type": "Point", "coordinates": [ -117.25, 32.99 ] } },
{ "type": "Feature", "properties": { "zip": "92078", "city": "San Marcos", "state": "CA", "teslas": 164, "tesla_rate": 4.36 }, "geometry": { "type": "Point", "coordinates": [ -117.16, 33.11 ] } },
{ "type": "Feature", "properties": { "zip": "92081", "city": "Vista", "state": "CA", "teslas": 24, "tesla_rate": 0.99 }, "geometry": { "type": "Point", "coordinates": [ -117.24, 33.18 ] } },
{ "type": "Feature", "properties": { "zip": "92084", "city": "Vista", "state": "CA", "teslas": 31, "tesla_rate": 0.78 }, "geometry": { "type": "Point", "coordinates": [ -117.2, 33.21 ] } },
{ "type": "Feature", "properties": { "zip": "92091", "city": "Rancho Santa Fe", "state": "CA", "teslas": 63, "tesla_rate": 27.19 }, "geometry": { "type": "Point", "coordinates": [ -117.19, 33.05 ] } },
{ "type": "Feature", "properties": { "zip": "92101", "city": "San Diego", "state": "CA", "teslas": 206, "tesla_rate": 4.55 }, "geometry": { "type": "Point", "coordinates": [ -117.16, 32.71 ] } },
{ "type": "Feature", "properties": { "zip": "92103", "city": "San Diego", "state": "CA", "teslas": 131, "tesla_rate": 5.09 }, "geometry": { "type": "Point", "coordinates": [ -117.17, 32.74 ] } },
{ "type": "Feature", "properties": { "zip": "92104", "city": "San Diego", "state": "CA", "teslas": 41, "tesla_rate": 1.27 }, "geometry": { "type": "Point", "coordinates": [ -117.12, 32.73 ] } },
{ "type": "Feature", "properties": { "zip": "92106", "city": "San Diego", "state": "CA", "teslas": 89, "tesla_rate": 5.54 }, "geometry": { "type": "Point", "coordinates": [ -117.23, 32.72 ] } },
{ "type": "Feature", "properties": { "zip": "92107", "city": "San Diego", "state": "CA", "teslas": 44, "tesla_rate": 2.0 }, "geometry": { "type": "Point", "coordinates": [ -117.24, 32.73 ] } },
{ "type": "Feature", "properties": { "zip": "92108", "city": "San Diego", "state": "CA", "teslas": 62, "tesla_rate": 3.49 }, "geometry": { "type": "Point", "coordinates": [ -117.1, 32.77 ] } },
{ "type": "Feature", "properties": { "zip": "92109", "city": "San Diego", "state": "CA", "teslas": 123, "tesla_rate": 3.59 }, "geometry": { "type": "Point", "coordinates": [ -117.23, 32.79 ] } },
{ "type": "Feature", "properties": { "zip": "92110", "city": "San Diego", "state": "CA", "teslas": 20, "tesla_rate": 0.88 }, "geometry": { "type": "Point", "coordinates": [ -117.18, 32.77 ] } },
{ "type": "Feature", "properties": { "zip": "92111", "city": "San Diego", "state": "CA", "teslas": 60, "tesla_rate": 1.46 }, "geometry": { "type": "Point", "coordinates": [ -117.16, 32.8 ] } },
{ "type": "Feature", "properties": { "zip": "92115", "city": "San Diego", "state": "CA", "teslas": 32, "tesla_rate": 0.86 }, "geometry": { "type": "Point", "coordinates": [ -117.07, 32.75 ] } },
{ "type": "Feature", "properties": { "zip": "92116", "city": "San Diego", "state": "CA", "teslas": 42, "tesla_rate": 1.73 }, "geometry": { "type": "Point", "coordinates": [ -117.12, 32.76 ] } },
{ "type": "Feature", "properties": { "zip": "92117", "city": "San Diego", "state": "CA", "teslas": 74, "tesla_rate": 1.69 }, "geometry": { "type": "Point", "coordinates": [ -117.19, 32.81 ] } },
{ "type": "Feature", "properties": { "zip": "92118", "city": "Coronado", "state": "CA", "teslas": 61, "tesla_rate": 4.5 }, "geometry": { "type": "Point", "coordinates": [ -117.14, 32.65 ] } },
{ "type": "Feature", "properties": { "zip": "92119", "city": "San Diego", "state": "CA", "teslas": 18, "tesla_rate": 0.92 }, "geometry": { "type": "Point", "coordinates": [ -117.03, 32.81 ] } },
{ "type": "Feature", "properties": { "zip": "92120", "city": "San Diego", "state": "CA", "teslas": 44, "tesla_rate": 1.76 }, "geometry": { "type": "Point", "coordinates": [ -117.06, 32.79 ] } },
{ "type": "Feature", "properties": { "zip": "92121", "city": "San Diego", "state": "CA", "teslas": 71, "tesla_rate": 7.83 }, "geometry": { "type": "Point", "coordinates": [ -117.2, 32.9 ] } },
{ "type": "Feature", "properties": { "zip": "92122", "city": "San Diego", "state": "CA", "teslas": 111, "tesla_rate": 3.89 }, "geometry": { "type": "Point", "coordinates": [ -117.2, 32.85 ] } },
{ "type": "Feature", "properties": { "zip": "92123", "city": "San Diego", "state": "CA", "teslas": 29, "tesla_rate": 1.04 }, "geometry": { "type": "Point", "coordinates": [ -117.13, 32.8 ] } },
{ "type": "Feature", "properties": { "zip": "92124", "city": "San Diego", "state": "CA", "teslas": 56, "tesla_rate": 2.79 }, "geometry": { "type": "Point", "coordinates": [ -117.08, 32.82 ] } },
{ "type": "Feature", "properties": { "zip": "92126", "city": "San Diego", "state": "CA", "teslas": 119, "tesla_rate": 1.99 }, "geometry": { "type": "Point", "coordinates": [ -117.13, 32.88 ] } },
{ "type": "Feature", "properties": { "zip": "92127", "city": "San Diego", "state": "CA", "teslas": 511, "tesla_rate": 14.52 }, "geometry": { "type": "Point", "coordinates": [ -117.12, 33.02 ] } },
{ "type": "Feature", "properties": { "zip": "92128", "city": "San Diego", "state": "CA", "teslas": 130, "tesla_rate": 3.36 }, "geometry": { "type": "Point", "coordinates": [ -117.07, 32.99 ] } },
{ "type": "Feature", "properties": { "zip": "92129", "city": "San Diego", "state": "CA", "teslas": 219, "tesla_rate": 5.15 }, "geometry": { "type": "Point", "coordinates": [ -117.12, 32.96 ] } },
{ "type": "Feature", "properties": { "zip": "92130", "city": "San Diego", "state": "CA", "teslas": 796, "tesla_rate": 18.35 }, "geometry": { "type": "Point", "coordinates": [ -117.19, 32.95 ] } },
{ "type": "Feature", "properties": { "zip": "92131", "city": "San Diego", "state": "CA", "teslas": 222, "tesla_rate": 7.38 }, "geometry": { "type": "Point", "coordinates": [ -117.07, 32.89 ] } },
{ "type": "Feature", "properties": { "zip": "92154", "city": "San Diego", "state": "CA", "teslas": 13, "tesla_rate": 0.17 }, "geometry": { "type": "Point", "coordinates": [ -117.01, 32.56 ] } },
{ "type": "Feature", "properties": { "zip": "92203", "city": "Indio", "state": "CA", "teslas": 22, "tesla_rate": 0.96 }, "geometry": { "type": "Point", "coordinates": [ -116.23, 33.75 ] } },
{ "type": "Feature", "properties": { "zip": "92210", "city": "Indian Wells", "state": "CA", "teslas": 24, "tesla_rate": 6.0 }, "geometry": { "type": "Point", "coordinates": [ -116.33, 33.7 ] } },
{ "type": "Feature", "properties": { "zip": "92211", "city": "Palm Desert", "state": "CA", "teslas": 49, "tesla_rate": 2.28 }, "geometry": { "type": "Point", "coordinates": [ -116.34, 33.77 ] } },
{ "type": "Feature", "properties": { "zip": "92223", "city": "Beaumont", "state": "CA", "teslas": 13, "tesla_rate": 0.31 }, "geometry": { "type": "Point", "coordinates": [ -116.97, 33.94 ] } },
{ "type": "Feature", "properties": { "zip": "92234", "city": "Cathedral City", "state": "CA", "teslas": 12, "tesla_rate": 0.31 }, "geometry": { "type": "Point", "coordinates": [ -116.45, 33.82 ] } },
{ "type": "Feature", "properties": { "zip": "92253", "city": "La Quinta", "state": "CA", "teslas": 84, "tesla_rate": 2.81 }, "geometry": { "type": "Point", "coordinates": [ -116.27, 33.65 ] } },
{ "type": "Feature", "properties": { "zip": "92260", "city": "Palm Desert", "state": "CA", "teslas": 54, "tesla_rate": 2.24 }, "geometry": { "type": "Point", "coordinates": [ -116.4, 33.7 ] } },
{ "type": "Feature", "properties": { "zip": "92262", "city": "Palm Springs", "state": "CA", "teslas": 85, "tesla_rate": 4.16 }, "geometry": { "type": "Point", "coordinates": [ -116.56, 33.85 ] } },
{ "type": "Feature", "properties": { "zip": "92264", "city": "Palm Springs", "state": "CA", "teslas": 55, "tesla_rate": 3.45 }, "geometry": { "type": "Point", "coordinates": [ -116.51, 33.72 ] } },
{ "type": "Feature", "properties": { "zip": "92270", "city": "Rancho Mirage", "state": "CA", "teslas": 124, "tesla_rate": 8.21 }, "geometry": { "type": "Point", "coordinates": [ -116.41, 33.78 ] } },
{ "type": "Feature", "properties": { "zip": "92336", "city": "Fontana", "state": "CA", "teslas": 34, "tesla_rate": 0.45 }, "geometry": { "type": "Point", "coordinates": [ -117.45, 34.14 ] } },
{ "type": "Feature", "properties": { "zip": "92346", "city": "Highland", "state": "CA", "teslas": 12, "tesla_rate": 0.28 }, "geometry": { "type": "Point", "coordinates": [ -117.15, 34.13 ] } },
{ "type": "Feature", "properties": { "zip": "92354", "city": "Loma Linda", "state": "CA", "teslas": 19, "tesla_rate": 1.2 }, "geometry": { "type": "Point", "coordinates": [ -117.24, 34.05 ] } },
{ "type": "Feature", "properties": { "zip": "92373", "city": "Redlands", "state": "CA", "teslas": 84, "tesla_rate": 3.0 }, "geometry": { "type": "Point", "coordinates": [ -117.12, 34.0 ] } },
{ "type": "Feature", "properties": { "zip": "92399", "city": "Yucaipa", "state": "CA", "teslas": 11, "tesla_rate": 0.25 }, "geometry": { "type": "Point", "coordinates": [ -117.01, 34.04 ] } },
{ "type": "Feature", "properties": { "zip": "92407", "city": "San Bernardino", "state": "CA", "teslas": 12, "tesla_rate": 0.27 }, "geometry": { "type": "Point", "coordinates": [ -117.37, 34.22 ] } },
{ "type": "Feature", "properties": { "zip": "92503", "city": "Riverside", "state": "CA", "teslas": 38, "tesla_rate": 0.57 }, "geometry": { "type": "Point", "coordinates": [ -117.44, 33.89 ] } },
{ "type": "Feature", "properties": { "zip": "92504", "city": "Riverside", "state": "CA", "teslas": 14, "tesla_rate": 0.3 }, "geometry": { "type": "Point", "coordinates": [ -117.4, 33.9 ] } },
{ "type": "Feature", "properties": { "zip": "92506", "city": "Riverside", "state": "CA", "teslas": 71, "tesla_rate": 1.9 }, "geometry": { "type": "Point", "coordinates": [ -117.36, 33.92 ] } },
{ "type": "Feature", "properties": { "zip": "92507", "city": "Riverside", "state": "CA", "teslas": 17, "tesla_rate": 0.48 }, "geometry": { "type": "Point", "coordinates": [ -117.31, 33.96 ] } },
{ "type": "Feature", "properties": { "zip": "92508", "city": "Riverside", "state": "CA", "teslas": 21, "tesla_rate": 0.74 }, "geometry": { "type": "Point", "coordinates": [ -117.32, 33.89 ] } },
{ "type": "Feature", "properties": { "zip": "92509", "city": "Riverside", "state": "CA", "teslas": 12, "tesla_rate": 0.19 }, "geometry": { "type": "Point", "coordinates": [ -117.44, 33.99 ] } },
{ "type": "Feature", "properties": { "zip": "92530", "city": "Lake Elsinore", "state": "CA", "teslas": 18, "tesla_rate": 0.44 }, "geometry": { "type": "Point", "coordinates": [ -117.37, 33.68 ] } },
{ "type": "Feature", "properties": { "zip": "92532", "city": "Lake Elsinore", "state": "CA", "teslas": 15, "tesla_rate": 0.81 }, "geometry": { "type": "Point", "coordinates": [ -117.34, 33.71 ] } },
{ "type": "Feature", "properties": { "zip": "92562", "city": "Murrieta", "state": "CA", "teslas": 81, "tesla_rate": 1.58 }, "geometry": { "type": "Point", "coordinates": [ -117.33, 33.54 ] } },
{ "type": "Feature", "properties": { "zip": "92563", "city": "Murrieta", "state": "CA", "teslas": 54, "tesla_rate": 1.08 }, "geometry": { "type": "Point", "coordinates": [ -117.14, 33.57 ] } },
{ "type": "Feature", "properties": { "zip": "92584", "city": "Menifee", "state": "CA", "teslas": 12, "tesla_rate": 0.32 }, "geometry": { "type": "Point", "coordinates": [ -117.18, 33.65 ] } },
{ "type": "Feature", "properties": { "zip": "92587", "city": "Sun City", "state": "CA", "teslas": 11, "tesla_rate": 0.72 }, "geometry": { "type": "Point", "coordinates": [ -117.24, 33.69 ] } },
{ "type": "Feature", "properties": { "zip": "92591", "city": "Temecula", "state": "CA", "teslas": 28, "tesla_rate": 0.88 }, "geometry": { "type": "Point", "coordinates": [ -117.1, 33.53 ] } },
{ "type": "Feature", "properties": { "zip": "92592", "city": "Temecula", "state": "CA", "teslas": 102, "tesla_rate": 1.65 }, "geometry": { "type": "Point", "coordinates": [ -117.04, 33.53 ] } },
{ "type": "Feature", "properties": { "zip": "92602", "city": "Irvine", "state": "CA", "teslas": 292, "tesla_rate": 15.12 }, "geometry": { "type": "Point", "coordinates": [ -117.76, 33.74 ] } },
{ "type": "Feature", "properties": { "zip": "92603", "city": "Irvine", "state": "CA", "teslas": 417, "tesla_rate": 26.85 }, "geometry": { "type": "Point", "coordinates": [ -117.79, 33.62 ] } },
{ "type": "Feature", "properties": { "zip": "92604", "city": "Irvine", "state": "CA", "teslas": 102, "tesla_rate": 4.82 }, "geometry": { "type": "Point", "coordinates": [ -117.78, 33.69 ] } },
{ "type": "Feature", "properties": { "zip": "92606", "city": "Irvine", "state": "CA", "teslas": 106, "tesla_rate": 5.81 }, "geometry": { "type": "Point", "coordinates": [ -117.79, 33.7 ] } },
{ "type": "Feature", "properties": { "zip": "92610", "city": "Foothill Ranch", "state": "CA", "teslas": 57, "tesla_rate": 5.59 }, "geometry": { "type": "Point", "coordinates": [ -117.67, 33.7 ] } },
{ "type": "Feature", "properties": { "zip": "92612", "city": "Irvine", "state": "CA", "teslas": 139, "tesla_rate": 7.26 }, "geometry": { "type": "Point", "coordinates": [ -117.81, 33.63 ] } },
{ "type": "Feature", "properties": { "zip": "92614", "city": "Irvine", "state": "CA", "teslas": 137, "tesla_rate": 5.88 }, "geometry": { "type": "Point", "coordinates": [ -117.85, 33.68 ] } },
{ "type": "Feature", "properties": { "zip": "92617", "city": "Irvine", "state": "CA", "teslas": 16, "tesla_rate": 3.24 }, "geometry": { "type": "Point", "coordinates": [ -117.83, 33.63 ] } },
{ "type": "Feature", "properties": { "zip": "92618", "city": "Irvine", "state": "CA", "teslas": 621, "tesla_rate": 17.48 }, "geometry": { "type": "Point", "coordinates": [ -117.73, 33.67 ] } },
{ "type": "Feature", "properties": { "zip": "92620", "city": "Irvine", "state": "CA", "teslas": 569, "tesla_rate": 13.67 }, "geometry": { "type": "Point", "coordinates": [ -117.76, 33.7 ] } },
{ "type": "Feature", "properties": { "zip": "92624", "city": "Capistrano Beach", "state": "CA", "teslas": 14, "tesla_rate": 2.0 }, "geometry": { "type": "Point", "coordinates": [ -117.66, 33.45 ] } },
{ "type": "Feature", "properties": { "zip": "92625", "city": "Corona Del Mar", "state": "CA", "teslas": 316, "tesla_rate": 27.37 }, "geometry": { "type": "Point", "coordinates": [ -117.86, 33.6 ] } },
{ "type": "Feature", "properties": { "zip": "92626", "city": "Costa Mesa", "state": "CA", "teslas": 154, "tesla_rate": 3.24 }, "geometry": { "type": "Point", "coordinates": [ -117.9, 33.67 ] } },
{ "type": "Feature", "properties": { "zip": "92627", "city": "Costa Mesa", "state": "CA", "teslas": 144, "tesla_rate": 3.01 }, "geometry": { "type": "Point", "coordinates": [ -117.91, 33.64 ] } },
{ "type": "Feature", "properties": { "zip": "92629", "city": "Dana Point", "state": "CA", "teslas": 178, "tesla_rate": 7.41 }, "geometry": { "type": "Point", "coordinates": [ -117.7, 33.47 ] } },
{ "type": "Feature", "properties": { "zip": "92630", "city": "Lake Forest", "state": "CA", "teslas": 259, "tesla_rate": 4.68 }, "geometry": { "type": "Point", "coordinates": [ -117.67, 33.64 ] } },
{ "type": "Feature", "properties": { "zip": "92646", "city": "Huntington Beach", "state": "CA", "teslas": 202, "tesla_rate": 4.06 }, "geometry": { "type": "Point", "coordinates": [ -117.97, 33.66 ] } },
{ "type": "Feature", "properties": { "zip": "92647", "city": "Huntington Beach", "state": "CA", "teslas": 99, "tesla_rate": 2.08 }, "geometry": { "type": "Point", "coordinates": [ -118.0, 33.72 ] } },
{ "type": "Feature", "properties": { "zip": "92648", "city": "Huntington Beach", "state": "CA", "teslas": 354, "tesla_rate": 8.81 }, "geometry": { "type": "Point", "coordinates": [ -118.0, 33.67 ] } },
{ "type": "Feature", "properties": { "zip": "92649", "city": "Huntington Beach", "state": "CA", "teslas": 235, "tesla_rate": 7.36 }, "geometry": { "type": "Point", "coordinates": [ -118.04, 33.71 ] } },
{ "type": "Feature", "properties": { "zip": "92651", "city": "Laguna Beach", "state": "CA", "teslas": 457, "tesla_rate": 19.83 }, "geometry": { "type": "Point", "coordinates": [ -117.78, 33.55 ] } },
{ "type": "Feature", "properties": { "zip": "92653", "city": "Laguna Hills", "state": "CA", "teslas": 184, "tesla_rate": 6.84 }, "geometry": { "type": "Point", "coordinates": [ -117.71, 33.6 ] } },
{ "type": "Feature", "properties": { "zip": "92656", "city": "Aliso Viejo", "state": "CA", "teslas": 223, "tesla_rate": 5.58 }, "geometry": { "type": "Point", "coordinates": [ -117.72, 33.57 ] } },
{ "type": "Feature", "properties": { "zip": "92657", "city": "Newport Coast", "state": "CA", "teslas": 459, "tesla_rate": 48.05 }, "geometry": { "type": "Point", "coordinates": [ -117.82, 33.6 ] } },
{ "type": "Feature", "properties": { "zip": "92660", "city": "Newport Beach", "state": "CA", "teslas": 640, "tesla_rate": 18.66 }, "geometry": { "type": "Point", "coordinates": [ -117.87, 33.62 ] } },
{ "type": "Feature", "properties": { "zip": "92661", "city": "Newport Beach", "state": "CA", "teslas": 29, "tesla_rate": 9.29 }, "geometry": { "type": "Point", "coordinates": [ -117.9, 33.6 ] } },
{ "type": "Feature", "properties": { "zip": "92663", "city": "Newport Beach", "state": "CA", "teslas": 246, "tesla_rate": 13.6 }, "geometry": { "type": "Point", "coordinates": [ -117.93, 33.62 ] } },
{ "type": "Feature", "properties": { "zip": "92672", "city": "San Clemente", "state": "CA", "teslas": 182, "tesla_rate": 5.81 }, "geometry": { "type": "Point", "coordinates": [ -117.62, 33.42 ] } },
{ "type": "Feature", "properties": { "zip": "92673", "city": "San Clemente", "state": "CA", "teslas": 302, "tesla_rate": 11.7 }, "geometry": { "type": "Point", "coordinates": [ -117.61, 33.48 ] } },
{ "type": "Feature", "properties": { "zip": "92675", "city": "San Juan Capistrano", "state": "CA", "teslas": 277, "tesla_rate": 8.63 }, "geometry": { "type": "Point", "coordinates": [ -117.61, 33.52 ] } },
{ "type": "Feature", "properties": { "zip": "92677", "city": "Laguna Niguel", "state": "CA", "teslas": 519, "tesla_rate": 9.44 }, "geometry": { "type": "Point", "coordinates": [ -117.7, 33.53 ] } },
{ "type": "Feature", "properties": { "zip": "92679", "city": "Trabuco Canyon", "state": "CA", "teslas": 357, "tesla_rate": 12.73 }, "geometry": { "type": "Point", "coordinates": [ -117.54, 33.61 ] } },
{ "type": "Feature", "properties": { "zip": "92683", "city": "Westminster", "state": "CA", "teslas": 147, "tesla_rate": 2.02 }, "geometry": { "type": "Point", "coordinates": [ -117.99, 33.74 ] } },
{ "type": "Feature", "properties": { "zip": "92688", "city": "Rancho Santa Margarita", "state": "CA", "teslas": 115, "tesla_rate": 3.17 }, "geometry": { "type": "Point", "coordinates": [ -117.61, 33.61 ] } },
{ "type": "Feature", "properties": { "zip": "92691", "city": "Mission Viejo", "state": "CA", "teslas": 69, "tesla_rate": 1.64 }, "geometry": { "type": "Point", "coordinates": [ -117.66, 33.6 ] } },
{ "type": "Feature", "properties": { "zip": "92692", "city": "Mission Viejo", "state": "CA", "teslas": 202, "tesla_rate": 4.99 }, "geometry": { "type": "Point", "coordinates": [ -117.64, 33.6 ] } },
{ "type": "Feature", "properties": { "zip": "92694", "city": "Ladera Ranch", "state": "CA", "teslas": 320, "tesla_rate": 14.45 }, "geometry": { "type": "Point", "coordinates": [ -117.63, 33.56 ] } },
{ "type": "Feature", "properties": { "zip": "92703", "city": "Santa Ana", "state": "CA", "teslas": 15, "tesla_rate": 0.33 }, "geometry": { "type": "Point", "coordinates": [ -117.89, 33.74 ] } },
{ "type": "Feature", "properties": { "zip": "92704", "city": "Santa Ana", "state": "CA", "teslas": 71, "tesla_rate": 1.14 }, "geometry": { "type": "Point", "coordinates": [ -117.9, 33.71 ] } },
{ "type": "Feature", "properties": { "zip": "92705", "city": "Santa Ana", "state": "CA", "teslas": 282, "tesla_rate": 6.86 }, "geometry": { "type": "Point", "coordinates": [ -117.79, 33.76 ] } },
{ "type": "Feature", "properties": { "zip": "92706", "city": "Santa Ana", "state": "CA", "teslas": 19, "tesla_rate": 0.75 }, "geometry": { "type": "Point", "coordinates": [ -117.88, 33.76 ] } },
{ "type": "Feature", "properties": { "zip": "92707", "city": "Santa Ana", "state": "CA", "teslas": 18, "tesla_rate": 0.41 }, "geometry": { "type": "Point", "coordinates": [ -117.87, 33.71 ] } },
{ "type": "Feature", "properties": { "zip": "92708", "city": "Fountain Valley", "state": "CA", "teslas": 210, "tesla_rate": 4.17 }, "geometry": { "type": "Point", "coordinates": [ -117.94, 33.71 ] } },
{ "type": "Feature", "properties": { "zip": "92780", "city": "Tustin", "state": "CA", "teslas": 73, "tesla_rate": 1.76 }, "geometry": { "type": "Point", "coordinates": [ -117.82, 33.74 ] } },
{ "type": "Feature", "properties": { "zip": "92782", "city": "Tustin", "state": "CA", "teslas": 271, "tesla_rate": 12.56 }, "geometry": { "type": "Point", "coordinates": [ -117.77, 33.75 ] } },
{ "type": "Feature", "properties": { "zip": "92801", "city": "Anaheim", "state": "CA", "teslas": 33, "tesla_rate": 0.74 }, "geometry": { "type": "Point", "coordinates": [ -117.95, 33.84 ] } },
{ "type": "Feature", "properties": { "zip": "92802", "city": "Anaheim", "state": "CA", "teslas": 17, "tesla_rate": 0.61 }, "geometry": { "type": "Point", "coordinates": [ -117.91, 33.81 ] } },
{ "type": "Feature", "properties": { "zip": "92804", "city": "Anaheim", "state": "CA", "teslas": 26, "tesla_rate": 0.43 }, "geometry": { "type": "Point", "coordinates": [ -117.97, 33.81 ] } },
{ "type": "Feature", "properties": { "zip": "92805", "city": "Anaheim", "state": "CA", "teslas": 45, "tesla_rate": 0.76 }, "geometry": { "type": "Point", "coordinates": [ -117.91, 33.82 ] } },
{ "type": "Feature", "properties": { "zip": "92806", "city": "Anaheim", "state": "CA", "teslas": 19, "tesla_rate": 0.53 }, "geometry": { "type": "Point", "coordinates": [ -117.86, 33.83 ] } },
{ "type": "Feature", "properties": { "zip": "92807", "city": "Anaheim", "state": "CA", "teslas": 181, "tesla_rate": 5.2 }, "geometry": { "type": "Point", "coordinates": [ -117.79, 33.85 ] } },
{ "type": "Feature", "properties": { "zip": "92808", "city": "Anaheim", "state": "CA", "teslas": 127, "tesla_rate": 7.37 }, "geometry": { "type": "Point", "coordinates": [ -117.73, 33.84 ] } },
{ "type": "Feature", "properties": { "zip": "92821", "city": "Brea", "state": "CA", "teslas": 184, "tesla_rate": 5.23 }, "geometry": { "type": "Point", "coordinates": [ -117.86, 33.92 ] } },
{ "type": "Feature", "properties": { "zip": "92823", "city": "Brea", "state": "CA", "teslas": 32, "tesla_rate": 7.61 }, "geometry": { "type": "Point", "coordinates": [ -117.8, 33.92 ] } },
{ "type": "Feature", "properties": { "zip": "92831", "city": "Fullerton", "state": "CA", "teslas": 71, "tesla_rate": 2.83 }, "geometry": { "type": "Point", "coordinates": [ -117.89, 33.87 ] } },
{ "type": "Feature", "properties": { "zip": "92832", "city": "Fullerton", "state": "CA", "teslas": 12, "tesla_rate": 0.67 }, "geometry": { "type": "Point", "coordinates": [ -117.92, 33.86 ] } },
{ "type": "Feature", "properties": { "zip": "92833", "city": "Fullerton", "state": "CA", "teslas": 111, "tesla_rate": 2.71 }, "geometry": { "type": "Point", "coordinates": [ -117.96, 33.88 ] } },
{ "type": "Feature", "properties": { "zip": "92835", "city": "Fullerton", "state": "CA", "teslas": 123, "tesla_rate": 6.03 }, "geometry": { "type": "Point", "coordinates": [ -117.91, 33.9 ] } },
{ "type": "Feature", "properties": { "zip": "92840", "city": "Garden Grove", "state": "CA", "teslas": 24, "tesla_rate": 0.58 }, "geometry": { "type": "Point", "coordinates": [ -117.93, 33.78 ] } },
{ "type": "Feature", "properties": { "zip": "92841", "city": "Garden Grove", "state": "CA", "teslas": 18, "tesla_rate": 0.67 }, "geometry": { "type": "Point", "coordinates": [ -117.97, 33.78 ] } },
{ "type": "Feature", "properties": { "zip": "92843", "city": "Garden Grove", "state": "CA", "teslas": 24, "tesla_rate": 0.69 }, "geometry": { "type": "Point", "coordinates": [ -117.94, 33.75 ] } },
{ "type": "Feature", "properties": { "zip": "92844", "city": "Garden Grove", "state": "CA", "teslas": 16, "tesla_rate": 0.89 }, "geometry": { "type": "Point", "coordinates": [ -117.97, 33.76 ] } },
{ "type": "Feature", "properties": { "zip": "92861", "city": "Villa Park", "state": "CA", "teslas": 75, "tesla_rate": 12.76 }, "geometry": { "type": "Point", "coordinates": [ -117.81, 33.81 ] } },
{ "type": "Feature", "properties": { "zip": "92865", "city": "Orange", "state": "CA", "teslas": 27, "tesla_rate": 1.38 }, "geometry": { "type": "Point", "coordinates": [ -117.85, 33.83 ] } },
{ "type": "Feature", "properties": { "zip": "92867", "city": "Orange", "state": "CA", "teslas": 182, "tesla_rate": 4.88 }, "geometry": { "type": "Point", "coordinates": [ -117.79, 33.81 ] } },
{ "type": "Feature", "properties": { "zip": "92868", "city": "Orange", "state": "CA", "teslas": 17, "tesla_rate": 0.43 }, "geometry": { "type": "Point", "coordinates": [ -117.86, 33.78 ] } },
{ "type": "Feature", "properties": { "zip": "92869", "city": "Orange", "state": "CA", "teslas": 120, "tesla_rate": 3.88 }, "geometry": { "type": "Point", "coordinates": [ -117.78, 33.79 ] } },
{ "type": "Feature", "properties": { "zip": "92870", "city": "Placentia", "state": "CA", "teslas": 95, "tesla_rate": 2.25 }, "geometry": { "type": "Point", "coordinates": [ -117.85, 33.88 ] } },
{ "type": "Feature", "properties": { "zip": "92879", "city": "Corona", "state": "CA", "teslas": 29, "tesla_rate": 0.79 }, "geometry": { "type": "Point", "coordinates": [ -117.53, 33.87 ] } },
{ "type": "Feature", "properties": { "zip": "92880", "city": "Corona", "state": "CA", "teslas": 158, "tesla_rate": 2.82 }, "geometry": { "type": "Point", "coordinates": [ -117.61, 33.9 ] } },
{ "type": "Feature", "properties": { "zip": "92881", "city": "Corona", "state": "CA", "teslas": 58, "tesla_rate": 2.24 }, "geometry": { "type": "Point", "coordinates": [ -117.5, 33.83 ] } },
{ "type": "Feature", "properties": { "zip": "92882", "city": "Corona", "state": "CA", "teslas": 56, "tesla_rate": 1.04 }, "geometry": { "type": "Point", "coordinates": [ -117.6, 33.83 ] } },
{ "type": "Feature", "properties": { "zip": "92883", "city": "Corona", "state": "CA", "teslas": 35, "tesla_rate": 1.34 }, "geometry": { "type": "Point", "coordinates": [ -117.48, 33.75 ] } },
{ "type": "Feature", "properties": { "zip": "92886", "city": "Yorba Linda", "state": "CA", "teslas": 338, "tesla_rate": 7.77 }, "geometry": { "type": "Point", "coordinates": [ -117.78, 33.89 ] } },
{ "type": "Feature", "properties": { "zip": "92887", "city": "Yorba Linda", "state": "CA", "teslas": 134, "tesla_rate": 6.96 }, "geometry": { "type": "Point", "coordinates": [ -117.72, 33.88 ] } },
{ "type": "Feature", "properties": { "zip": "93001", "city": "Ventura", "state": "CA", "teslas": 56, "tesla_rate": 2.02 }, "geometry": { "type": "Point", "coordinates": [ -119.31, 34.33 ] } },
{ "type": "Feature", "properties": { "zip": "93003", "city": "Ventura", "state": "CA", "teslas": 39, "tesla_rate": 0.88 }, "geometry": { "type": "Point", "coordinates": [ -119.22, 34.28 ] } },
{ "type": "Feature", "properties": { "zip": "93004", "city": "Ventura", "state": "CA", "teslas": 13, "tesla_rate": 0.48 }, "geometry": { "type": "Point", "coordinates": [ -119.16, 34.27 ] } },
{ "type": "Feature", "properties": { "zip": "93010", "city": "Camarillo", "state": "CA", "teslas": 83, "tesla_rate": 2.16 }, "geometry": { "type": "Point", "coordinates": [ -119.07, 34.23 ] } },
{ "type": "Feature", "properties": { "zip": "93012", "city": "Camarillo", "state": "CA", "teslas": 119, "tesla_rate": 3.73 }, "geometry": { "type": "Point", "coordinates": [ -118.98, 34.2 ] } },
{ "type": "Feature", "properties": { "zip": "93013", "city": "Carpinteria", "state": "CA", "teslas": 13, "tesla_rate": 0.88 }, "geometry": { "type": "Point", "coordinates": [ -119.52, 34.43 ] } },
{ "type": "Feature", "properties": { "zip": "93021", "city": "Moorpark", "state": "CA", "teslas": 130, "tesla_rate": 3.89 }, "geometry": { "type": "Point", "coordinates": [ -118.87, 34.31 ] } },
{ "type": "Feature", "properties": { "zip": "93023", "city": "Ojai", "state": "CA", "teslas": 45, "tesla_rate": 2.37 }, "geometry": { "type": "Point", "coordinates": [ -119.29, 34.51 ] } },
{ "type": "Feature", "properties": { "zip": "93030", "city": "Oxnard", "state": "CA", "teslas": 22, "tesla_rate": 0.49 }, "geometry": { "type": "Point", "coordinates": [ -119.17, 34.19 ] } },
{ "type": "Feature", "properties": { "zip": "93035", "city": "Oxnard", "state": "CA", "teslas": 49, "tesla_rate": 2.06 }, "geometry": { "type": "Point", "coordinates": [ -119.23, 34.19 ] } },
{ "type": "Feature", "properties": { "zip": "93036", "city": "Oxnard", "state": "CA", "teslas": 15, "tesla_rate": 0.43 }, "geometry": { "type": "Point", "coordinates": [ -119.16, 34.25 ] } },
{ "type": "Feature", "properties": { "zip": "93063", "city": "Simi Valley", "state": "CA", "teslas": 105, "tesla_rate": 2.11 }, "geometry": { "type": "Point", "coordinates": [ -118.72, 34.3 ] } },
{ "type": "Feature", "properties": { "zip": "93065", "city": "Simi Valley", "state": "CA", "teslas": 161, "tesla_rate": 2.47 }, "geometry": { "type": "Point", "coordinates": [ -118.78, 34.25 ] } },
{ "type": "Feature", "properties": { "zip": "93101", "city": "Santa Barbara", "state": "CA", "teslas": 53, "tesla_rate": 2.19 }, "geometry": { "type": "Point", "coordinates": [ -119.7, 34.41 ] } },
{ "type": "Feature", "properties": { "zip": "93103", "city": "Santa Barbara", "state": "CA", "teslas": 34, "tesla_rate": 2.03 }, "geometry": { "type": "Point", "coordinates": [ -119.68, 34.43 ] } },
{ "type": "Feature", "properties": { "zip": "93105", "city": "Santa Barbara", "state": "CA", "teslas": 106, "tesla_rate": 5.01 }, "geometry": { "type": "Point", "coordinates": [ -119.72, 34.01 ] } },
{ "type": "Feature", "properties": { "zip": "93108", "city": "Santa Barbara", "state": "CA", "teslas": 181, "tesla_rate": 17.3 }, "geometry": { "type": "Point", "coordinates": [ -119.61, 34.44 ] } },
{ "type": "Feature", "properties": { "zip": "93109", "city": "Santa Barbara", "state": "CA", "teslas": 48, "tesla_rate": 5.29 }, "geometry": { "type": "Point", "coordinates": [ -119.72, 34.4 ] } },
{ "type": "Feature", "properties": { "zip": "93110", "city": "Santa Barbara", "state": "CA", "teslas": 50, "tesla_rate": 3.65 }, "geometry": { "type": "Point", "coordinates": [ -119.77, 34.43 ] } },
{ "type": "Feature", "properties": { "zip": "93111", "city": "Santa Barbara", "state": "CA", "teslas": 60, "tesla_rate": 3.58 }, "geometry": { "type": "Point", "coordinates": [ -119.8, 34.45 ] } },
{ "type": "Feature", "properties": { "zip": "93117", "city": "Goleta", "state": "CA", "teslas": 63, "tesla_rate": 2.01 }, "geometry": { "type": "Point", "coordinates": [ -120.12, 34.5 ] } },
{ "type": "Feature", "properties": { "zip": "93277", "city": "Visalia", "state": "CA", "teslas": 11, "tesla_rate": 0.3 }, "geometry": { "type": "Point", "coordinates": [ -119.38, 36.29 ] } },
{ "type": "Feature", "properties": { "zip": "93291", "city": "Visalia", "state": "CA", "teslas": 24, "tesla_rate": 0.57 }, "geometry": { "type": "Point", "coordinates": [ -119.38, 36.4 ] } },
{ "type": "Feature", "properties": { "zip": "93306", "city": "Bakersfield", "state": "CA", "teslas": 13, "tesla_rate": 0.28 }, "geometry": { "type": "Point", "coordinates": [ -118.83, 35.43 ] } },
{ "type": "Feature", "properties": { "zip": "93311", "city": "Bakersfield", "state": "CA", "teslas": 43, "tesla_rate": 1.18 }, "geometry": { "type": "Point", "coordinates": [ -119.21, 35.18 ] } },
{ "type": "Feature", "properties": { "zip": "93312", "city": "Bakersfield", "state": "CA", "teslas": 14, "tesla_rate": 0.31 }, "geometry": { "type": "Point", "coordinates": [ -119.22, 35.38 ] } },
{ "type": "Feature", "properties": { "zip": "93401", "city": "San Luis Obispo", "state": "CA", "teslas": 87, "tesla_rate": 3.33 }, "geometry": { "type": "Point", "coordinates": [ -120.62, 35.25 ] } },
{ "type": "Feature", "properties": { "zip": "93402", "city": "Los Osos", "state": "CA", "teslas": 18, "tesla_rate": 1.37 }, "geometry": { "type": "Point", "coordinates": [ -120.81, 35.29 ] } },
{ "type": "Feature", "properties": { "zip": "93405", "city": "San Luis Obispo", "state": "CA", "teslas": 33, "tesla_rate": 2.7 }, "geometry": { "type": "Point", "coordinates": [ -120.69, 35.27 ] } },
{ "type": "Feature", "properties": { "zip": "93420", "city": "Arroyo Grande", "state": "CA", "teslas": 51, "tesla_rate": 1.75 }, "geometry": { "type": "Point", "coordinates": [ -120.43, 35.16 ] } },
{ "type": "Feature", "properties": { "zip": "93422", "city": "Atascadero", "state": "CA", "teslas": 19, "tesla_rate": 0.63 }, "geometry": { "type": "Point", "coordinates": [ -120.71, 35.45 ] } },
{ "type": "Feature", "properties": { "zip": "93444", "city": "Nipomo", "state": "CA", "teslas": 19, "tesla_rate": 0.91 }, "geometry": { "type": "Point", "coordinates": [ -120.48, 35.05 ] } },
{ "type": "Feature", "properties": { "zip": "93446", "city": "Paso Robles", "state": "CA", "teslas": 21, "tesla_rate": 0.5 }, "geometry": { "type": "Point", "coordinates": [ -120.76, 35.61 ] } },
{ "type": "Feature", "properties": { "zip": "93449", "city": "Pismo Beach", "state": "CA", "teslas": 19, "tesla_rate": 2.39 }, "geometry": { "type": "Point", "coordinates": [ -120.66, 35.15 ] } },
{ "type": "Feature", "properties": { "zip": "93455", "city": "Santa Maria", "state": "CA", "teslas": 13, "tesla_rate": 0.34 }, "geometry": { "type": "Point", "coordinates": [ -120.41, 34.82 ] } },
{ "type": "Feature", "properties": { "zip": "93463", "city": "Solvang", "state": "CA", "teslas": 13, "tesla_rate": 1.68 }, "geometry": { "type": "Point", "coordinates": [ -120.14, 34.61 ] } },
{ "type": "Feature", "properties": { "zip": "93536", "city": "Lancaster", "state": "CA", "teslas": 20, "tesla_rate": 0.37 }, "geometry": { "type": "Point", "coordinates": [ -118.48, 34.72 ] } },
{ "type": "Feature", "properties": { "zip": "93551", "city": "Palmdale", "state": "CA", "teslas": 50, "tesla_rate": 1.12 }, "geometry": { "type": "Point", "coordinates": [ -118.27, 34.61 ] } },
{ "type": "Feature", "properties": { "zip": "93561", "city": "Tehachapi", "state": "CA", "teslas": 11, "tesla_rate": 0.41 }, "geometry": { "type": "Point", "coordinates": [ -118.51, 35.12 ] } },
{ "type": "Feature", "properties": { "zip": "93611", "city": "Clovis", "state": "CA", "teslas": 19, "tesla_rate": 0.51 }, "geometry": { "type": "Point", "coordinates": [ -119.56, 36.93 ] } },
{ "type": "Feature", "properties": { "zip": "93619", "city": "Clovis", "state": "CA", "teslas": 75, "tesla_rate": 2.2 }, "geometry": { "type": "Point", "coordinates": [ -119.58, 36.91 ] } },
{ "type": "Feature", "properties": { "zip": "93711", "city": "Fresno", "state": "CA", "teslas": 64, "tesla_rate": 2.05 }, "geometry": { "type": "Point", "coordinates": [ -119.82, 36.84 ] } },
{ "type": "Feature", "properties": { "zip": "93720", "city": "Fresno", "state": "CA", "teslas": 73, "tesla_rate": 2.09 }, "geometry": { "type": "Point", "coordinates": [ -119.77, 36.88 ] } },
{ "type": "Feature", "properties": { "zip": "93722", "city": "Fresno", "state": "CA", "teslas": 15, "tesla_rate": 0.25 }, "geometry": { "type": "Point", "coordinates": [ -119.92, 36.79 ] } },
{ "type": "Feature", "properties": { "zip": "93727", "city": "Fresno", "state": "CA", "teslas": 17, "tesla_rate": 0.32 }, "geometry": { "type": "Point", "coordinates": [ -119.67, 36.75 ] } },
{ "type": "Feature", "properties": { "zip": "93730", "city": "Fresno", "state": "CA", "teslas": 53, "tesla_rate": 5.5 }, "geometry": { "type": "Point", "coordinates": [ -119.75, 36.9 ] } },
{ "type": "Feature", "properties": { "zip": "93908", "city": "Salinas", "state": "CA", "teslas": 19, "tesla_rate": 1.4 }, "geometry": { "type": "Point", "coordinates": [ -121.62, 36.61 ] } },
{ "type": "Feature", "properties": { "zip": "93923", "city": "Carmel", "state": "CA", "teslas": 117, "tesla_rate": 10.98 }, "geometry": { "type": "Point", "coordinates": [ -121.82, 36.46 ] } },
{ "type": "Feature", "properties": { "zip": "93933", "city": "Marina", "state": "CA", "teslas": 21, "tesla_rate": 1.14 }, "geometry": { "type": "Point", "coordinates": [ -121.79, 36.67 ] } },
{ "type": "Feature", "properties": { "zip": "93940", "city": "Monterey", "state": "CA", "teslas": 70, "tesla_rate": 2.86 }, "geometry": { "type": "Point", "coordinates": [ -121.88, 36.6 ] } },
{ "type": "Feature", "properties": { "zip": "93950", "city": "Pacific Grove", "state": "CA", "teslas": 17, "tesla_rate": 1.39 }, "geometry": { "type": "Point", "coordinates": [ -121.92, 36.61 ] } },
{ "type": "Feature", "properties": { "zip": "93953", "city": "Pebble Beach", "state": "CA", "teslas": 37, "tesla_rate": 7.94 }, "geometry": { "type": "Point", "coordinates": [ -121.94, 36.58 ] } },
{ "type": "Feature", "properties": { "zip": "94002", "city": "Belmont", "state": "CA", "teslas": 305, "tesla_rate": 13.25 }, "geometry": { "type": "Point", "coordinates": [ -122.3, 37.5 ] } },
{ "type": "Feature", "properties": { "zip": "94005", "city": "Brisbane", "state": "CA", "teslas": 18, "tesla_rate": 3.77 }, "geometry": { "type": "Point", "coordinates": [ -122.41, 37.68 ] } },
{ "type": "Feature", "properties": { "zip": "94010", "city": "Burlingame", "state": "CA", "teslas": 797, "tesla_rate": 17.53 }, "geometry": { "type": "Point", "coordinates": [ -122.37, 37.56 ] } },
{ "type": "Feature", "properties": { "zip": "94014", "city": "Daly City", "state": "CA", "teslas": 33, "tesla_rate": 0.98 }, "geometry": { "type": "Point", "coordinates": [ -122.43, 37.68 ] } },
{ "type": "Feature", "properties": { "zip": "94015", "city": "Daly City", "state": "CA", "teslas": 79, "tesla_rate": 1.75 }, "geometry": { "type": "Point", "coordinates": [ -122.47, 37.67 ] } },
{ "type": "Feature", "properties": { "zip": "94019", "city": "Half Moon Bay", "state": "CA", "teslas": 86, "tesla_rate": 5.8 }, "geometry": { "type": "Point", "coordinates": [ -122.41, 37.44 ] } },
{ "type": "Feature", "properties": { "zip": "94022", "city": "Los Altos", "state": "CA", "teslas": 934, "tesla_rate": 49.61 }, "geometry": { "type": "Point", "coordinates": [ -122.14, 37.36 ] } },
{ "type": "Feature", "properties": { "zip": "94024", "city": "Los Altos", "state": "CA", "teslas": 773, "tesla_rate": 37.26 }, "geometry": { "type": "Point", "coordinates": [ -122.11, 37.34 ] } },
{ "type": "Feature", "properties": { "zip": "94025", "city": "Menlo Park", "state": "CA", "teslas": 797, "tesla_rate": 24.02 }, "geometry": { "type": "Point", "coordinates": [ -122.17, 37.45 ] } },
{ "type": "Feature", "properties": { "zip": "94027", "city": "Atherton", "state": "CA", "teslas": 420, "tesla_rate": 61.07 }, "geometry": { "type": "Point", "coordinates": [ -122.2, 37.44 ] } },
{ "type": "Feature", "properties": { "zip": "94028", "city": "Portola Valley", "state": "CA", "teslas": 254, "tesla_rate": 37.17 }, "geometry": { "type": "Point", "coordinates": [ -122.21, 37.37 ] } },
{ "type": "Feature", "properties": { "zip": "94030", "city": "Millbrae", "state": "CA", "teslas": 167, "tesla_rate": 8.76 }, "geometry": { "type": "Point", "coordinates": [ -122.4, 37.59 ] } },
{ "type": "Feature", "properties": { "zip": "94040", "city": "Mountain View", "state": "CA", "teslas": 408, "tesla_rate": 15.94 }, "geometry": { "type": "Point", "coordinates": [ -122.08, 37.38 ] } },
{ "type": "Feature", "properties": { "zip": "94041", "city": "Mountain View", "state": "CA", "teslas": 159, "tesla_rate": 14.27 }, "geometry": { "type": "Point", "coordinates": [ -122.07, 37.38 ] } },
{ "type": "Feature", "properties": { "zip": "94043", "city": "Mountain View", "state": "CA", "teslas": 290, "tesla_rate": 11.51 }, "geometry": { "type": "Point", "coordinates": [ -122.05, 37.41 ] } },
{ "type": "Feature", "properties": { "zip": "94044", "city": "Pacifica", "state": "CA", "teslas": 86, "tesla_rate": 2.62 }, "geometry": { "type": "Point", "coordinates": [ -122.45, 37.6 ] } },
{ "type": "Feature", "properties": { "zip": "94061", "city": "Redwood City", "state": "CA", "teslas": 203, "tesla_rate": 6.91 }, "geometry": { "type": "Point", "coordinates": [ -122.24, 37.46 ] } },
{ "type": "Feature", "properties": { "zip": "94062", "city": "Redwood City", "state": "CA", "teslas": 588, "tesla_rate": 23.0 }, "geometry": { "type": "Point", "coordinates": [ -122.29, 37.4 ] } },
{ "type": "Feature", "properties": { "zip": "94063", "city": "Redwood City", "state": "CA", "teslas": 100, "tesla_rate": 3.26 }, "geometry": { "type": "Point", "coordinates": [ -122.21, 37.49 ] } },
{ "type": "Feature", "properties": { "zip": "94065", "city": "Redwood City", "state": "CA", "teslas": 231, "tesla_rate": 22.6 }, "geometry": { "type": "Point", "coordinates": [ -122.24, 37.53 ] } },
{ "type": "Feature", "properties": { "zip": "94066", "city": "San Bruno", "state": "CA", "teslas": 98, "tesla_rate": 2.71 }, "geometry": { "type": "Point", "coordinates": [ -122.43, 37.62 ] } },
{ "type": "Feature", "properties": { "zip": "94070", "city": "San Carlos", "state": "CA", "teslas": 408, "tesla_rate": 14.17 }, "geometry": { "type": "Point", "coordinates": [ -122.26, 37.49 ] } },
{ "type": "Feature", "properties": { "zip": "94080", "city": "South San Francisco", "state": "CA", "teslas": 147, "tesla_rate": 1.15 }, "geometry": { "type": "Point", "coordinates": [ -122.42, 37.65 ] } },
{ "type": "Feature", "properties": { "zip": "94085", "city": "Sunnyvale", "state": "CA", "teslas": 124, "tesla_rate": 6.78 }, "geometry": { "type": "Point", "coordinates": [ -122.01, 37.38 ] } },
{ "type": "Feature", "properties": { "zip": "94086", "city": "Sunnyvale", "state": "CA", "teslas": 302, "tesla_rate": 8.53 }, "geometry": { "type": "Point", "coordinates": [ -122.02, 37.36 ] } },
{ "type": "Feature", "properties": { "zip": "94087", "city": "Sunnyvale", "state": "CA", "teslas": 580, "tesla_rate": 13.46 }, "geometry": { "type": "Point", "coordinates": [ -122.03, 37.35 ] } },
{ "type": "Feature", "properties": { "zip": "94089", "city": "Sunnyvale", "state": "CA", "teslas": 100, "tesla_rate": 5.46 }, "geometry": { "type": "Point", "coordinates": [ -122.0, 37.42 ] } },
{ "type": "Feature", "properties": { "zip": "94102", "city": "San Francisco", "state": "CA", "teslas": 26, "tesla_rate": 3.12 }, "geometry": { "type": "Point", "coordinates": [ -122.41, 37.77 ] } },
{ "type": "Feature", "properties": { "zip": "94103", "city": "San Francisco", "state": "CA", "teslas": 84, "tesla_rate": 6.64 }, "geometry": { "type": "Point", "coordinates": [ -122.41, 37.77 ] } },
{ "type": "Feature", "properties": { "zip": "94105", "city": "San Francisco", "state": "CA", "teslas": 147, "tesla_rate": 10.45 }, "geometry": { "type": "Point", "coordinates": [ -122.39, 37.78 ] } },
{ "type": "Feature", "properties": { "zip": "94107", "city": "San Francisco", "state": "CA", "teslas": 186, "tesla_rate": 11.19 }, "geometry": { "type": "Point", "coordinates": [ -122.39, 37.76 ] } },
{ "type": "Feature", "properties": { "zip": "94109", "city": "San Francisco", "state": "CA", "teslas": 107, "tesla_rate": 5.51 }, "geometry": { "type": "Point", "coordinates": [ -122.42, 37.79 ] } },
{ "type": "Feature", "properties": { "zip": "94110", "city": "San Francisco", "state": "CA", "teslas": 187, "tesla_rate": 5.71 }, "geometry": { "type": "Point", "coordinates": [ -122.41, 37.74 ] } },
{ "type": "Feature", "properties": { "zip": "94111", "city": "San Francisco", "state": "CA", "teslas": 11, "tesla_rate": 4.53 }, "geometry": { "type": "Point", "coordinates": [ -122.39, 37.79 ] } },
{ "type": "Feature", "properties": { "zip": "94112", "city": "San Francisco", "state": "CA", "teslas": 72, "tesla_rate": 1.51 }, "geometry": { "type": "Point", "coordinates": [ -122.44, 37.72 ] } },
{ "type": "Feature", "properties": { "zip": "94114", "city": "San Francisco", "state": "CA", "teslas": 239, "tesla_rate": 13.56 }, "geometry": { "type": "Point", "coordinates": [ -122.43, 37.75 ] } },
{ "type": "Feature", "properties": { "zip": "94115", "city": "San Francisco", "state": "CA", "teslas": 116, "tesla_rate": 6.94 }, "geometry": { "type": "Point", "coordinates": [ -122.43, 37.78 ] } },
{ "type": "Feature", "properties": { "zip": "94116", "city": "San Francisco", "state": "CA", "teslas": 121, "tesla_rate": 4.28 }, "geometry": { "type": "Point", "coordinates": [ -122.48, 37.74 ] } },
{ "type": "Feature", "properties": { "zip": "94117", "city": "San Francisco", "state": "CA", "teslas": 130, "tesla_rate": 7.43 }, "geometry": { "type": "Point", "coordinates": [ -122.44, 37.76 ] } },
{ "type": "Feature", "properties": { "zip": "94118", "city": "San Francisco", "state": "CA", "teslas": 171, "tesla_rate": 7.97 }, "geometry": { "type": "Point", "coordinates": [ -122.46, 37.78 ] } },
{ "type": "Feature", "properties": { "zip": "94121", "city": "San Francisco", "state": "CA", "teslas": 124, "tesla_rate": 5.38 }, "geometry": { "type": "Point", "coordinates": [ -122.49, 37.77 ] } },
{ "type": "Feature", "properties": { "zip": "94122", "city": "San Francisco", "state": "CA", "teslas": 129, "tesla_rate": 3.94 }, "geometry": { "type": "Point", "coordinates": [ -122.48, 37.76 ] } },
{ "type": "Feature", "properties": { "zip": "94123", "city": "San Francisco", "state": "CA", "teslas": 164, "tesla_rate": 11.56 }, "geometry": { "type": "Point", "coordinates": [ -122.43, 37.8 ] } },
{ "type": "Feature", "properties": { "zip": "94124", "city": "San Francisco", "state": "CA", "teslas": 47, "tesla_rate": 1.39 }, "geometry": { "type": "Point", "coordinates": [ -122.38, 37.73 ] } },
{ "type": "Feature", "properties": { "zip": "94127", "city": "San Francisco", "state": "CA", "teslas": 123, "tesla_rate": 8.76 }, "geometry": { "type": "Point", "coordinates": [ -122.45, 37.73 ] } },
{ "type": "Feature", "properties": { "zip": "94131", "city": "San Francisco", "state": "CA", "teslas": 157, "tesla_rate": 8.91 }, "geometry": { "type": "Point", "coordinates": [ -122.44, 37.74 ] } },
{ "type": "Feature", "properties": { "zip": "94132", "city": "San Francisco", "state": "CA", "teslas": 31, "tesla_rate": 2.03 }, "geometry": { "type": "Point", "coordinates": [ -122.48, 37.72 ] } },
{ "type": "Feature", "properties": { "zip": "94133", "city": "San Francisco", "state": "CA", "teslas": 72, "tesla_rate": 6.92 }, "geometry": { "type": "Point", "coordinates": [ -122.41, 37.8 ] } },
{ "type": "Feature", "properties": { "zip": "94134", "city": "San Francisco", "state": "CA", "teslas": 35, "tesla_rate": 1.33 }, "geometry": { "type": "Point", "coordinates": [ -122.41, 37.72 ] } },
{ "type": "Feature", "properties": { "zip": "94158", "city": "San Francisco", "state": "CA", "teslas": 37, "tesla_rate": 12.21 }, "geometry": { "type": "Point", "coordinates": [ -122.39, 37.76 ] } },
{ "type": "Feature", "properties": { "zip": "94301", "city": "Palo Alto", "state": "CA", "teslas": 584, "tesla_rate": 44.44 }, "geometry": { "type": "Point", "coordinates": [ -122.15, 37.44 ] } },
{ "type": "Feature", "properties": { "zip": "94303", "city": "Palo Alto", "state": "CA", "teslas": 434, "tesla_rate": 11.46 }, "geometry": { "type": "Point", "coordinates": [ -122.1, 37.45 ] } },
{ "type": "Feature", "properties": { "zip": "94304", "city": "Palo Alto", "state": "CA", "teslas": 28, "tesla_rate": 11.34 }, "geometry": { "type": "Point", "coordinates": [ -122.18, 37.37 ] } },
{ "type": "Feature", "properties": { "zip": "94305", "city": "Stanford", "state": "CA", "teslas": 44, "tesla_rate": 9.65 }, "geometry": { "type": "Point", "coordinates": [ -122.17, 37.41 ] } },
{ "type": "Feature", "properties": { "zip": "94306", "city": "Palo Alto", "state": "CA", "teslas": 479, "tesla_rate": 22.45 }, "geometry": { "type": "Point", "coordinates": [ -122.13, 37.41 ] } },
{ "type": "Feature", "properties": { "zip": "94401", "city": "San Mateo", "state": "CA", "teslas": 64, "tesla_rate": 2.32 }, "geometry": { "type": "Point", "coordinates": [ -122.32, 37.57 ] } },
{ "type": "Feature", "properties": { "zip": "94402", "city": "San Mateo", "state": "CA", "teslas": 297, "tesla_rate": 12.98 }, "geometry": { "type": "Point", "coordinates": [ -122.35, 37.52 ] } },
{ "type": "Feature", "properties": { "zip": "94403", "city": "San Mateo", "state": "CA", "teslas": 244, "tesla_rate": 6.96 }, "geometry": { "type": "Point", "coordinates": [ -122.3, 37.54 ] } },
{ "type": "Feature", "properties": { "zip": "94404", "city": "San Mateo", "state": "CA", "teslas": 320, "tesla_rate": 11.23 }, "geometry": { "type": "Point", "coordinates": [ -122.26, 37.55 ] } },
{ "type": "Feature", "properties": { "zip": "94501", "city": "Alameda", "state": "CA", "teslas": 183, "tesla_rate": 4.14 }, "geometry": { "type": "Point", "coordinates": [ -122.27, 37.77 ] } },
{ "type": "Feature", "properties": { "zip": "94502", "city": "Alameda", "state": "CA", "teslas": 82, "tesla_rate": 7.02 }, "geometry": { "type": "Point", "coordinates": [ -122.24, 37.73 ] } },
{ "type": "Feature", "properties": { "zip": "94503", "city": "American Canyon", "state": "CA", "teslas": 21, "tesla_rate": 1.14 }, "geometry": { "type": "Point", "coordinates": [ -122.25, 38.18 ] } },
{ "type": "Feature", "properties": { "zip": "94505", "city": "Discovery Bay", "state": "CA", "teslas": 16, "tesla_rate": 1.21 }, "geometry": { "type": "Point", "coordinates": [ -121.64, 37.86 ] } },
{ "type": "Feature", "properties": { "zip": "94506", "city": "Danville", "state": "CA", "teslas": 429, "tesla_rate": 19.89 }, "geometry": { "type": "Point", "coordinates": [ -121.88, 37.78 ] } },
{ "type": "Feature", "properties": { "zip": "94507", "city": "Alamo", "state": "CA", "teslas": 309, "tesla_rate": 20.02 }, "geometry": { "type": "Point", "coordinates": [ -121.97, 37.84 ] } },
{ "type": "Feature", "properties": { "zip": "94510", "city": "Benicia", "state": "CA", "teslas": 59, "tesla_rate": 2.15 }, "geometry": { "type": "Point", "coordinates": [ -122.13, 38.11 ] } },
{ "type": "Feature", "properties": { "zip": "94513", "city": "Brentwood", "state": "CA", "teslas": 116, "tesla_rate": 2.17 }, "geometry": { "type": "Point", "coordinates": [ -121.68, 37.87 ] } },
{ "type": "Feature", "properties": { "zip": "94517", "city": "Clayton", "state": "CA", "teslas": 18, "tesla_rate": 1.52 }, "geometry": { "type": "Point", "coordinates": [ -121.84, 37.88 ] } },
{ "type": "Feature", "properties": { "zip": "94518", "city": "Concord", "state": "CA", "teslas": 18, "tesla_rate": 0.81 }, "geometry": { "type": "Point", "coordinates": [ -122.02, 37.95 ] } },
{ "type": "Feature", "properties": { "zip": "94519", "city": "Concord", "state": "CA", "teslas": 11, "tesla_rate": 0.71 }, "geometry": { "type": "Point", "coordinates": [ -122.0, 37.99 ] } },
{ "type": "Feature", "properties": { "zip": "94521", "city": "Concord", "state": "CA", "teslas": 53, "tesla_rate": 1.53 }, "geometry": { "type": "Point", "coordinates": [ -121.96, 37.97 ] } },
{ "type": "Feature", "properties": { "zip": "94523", "city": "Pleasant Hill", "state": "CA", "teslas": 61, "tesla_rate": 2.12 }, "geometry": { "type": "Point", "coordinates": [ -122.07, 37.95 ] } },
{ "type": "Feature", "properties": { "zip": "94526", "city": "Danville", "state": "CA", "teslas": 341, "tesla_rate": 11.29 }, "geometry": { "type": "Point", "coordinates": [ -121.97, 37.81 ] } },
{ "type": "Feature", "properties": { "zip": "94530", "city": "El Cerrito", "state": "CA", "teslas": 30, "tesla_rate": 1.56 }, "geometry": { "type": "Point", "coordinates": [ -122.3, 37.91 ] } },
{ "type": "Feature", "properties": { "zip": "94531", "city": "Antioch", "state": "CA", "teslas": 23, "tesla_rate": 0.68 }, "geometry": { "type": "Point", "coordinates": [ -121.76, 37.96 ] } },
{ "type": "Feature", "properties": { "zip": "94533", "city": "Fairfield", "state": "CA", "teslas": 31, "tesla_rate": 0.54 }, "geometry": { "type": "Point", "coordinates": [ -122.0, 38.28 ] } },
{ "type": "Feature", "properties": { "zip": "94534", "city": "Fairfield", "state": "CA", "teslas": 116, "tesla_rate": 3.17 }, "geometry": { "type": "Point", "coordinates": [ -122.12, 38.23 ] } },
{ "type": "Feature", "properties": { "zip": "94536", "city": "Fremont", "state": "CA", "teslas": 404, "tesla_rate": 7.6 }, "geometry": { "type": "Point", "coordinates": [ -121.98, 37.56 ] } },
{ "type": "Feature", "properties": { "zip": "94538", "city": "Fremont", "state": "CA", "teslas": 798, "tesla_rate": 14.97 }, "geometry": { "type": "Point", "coordinates": [ -121.96, 37.5 ] } },
{ "type": "Feature", "properties": { "zip": "94539", "city": "Fremont", "state": "CA", "teslas": 1052, "tesla_rate": 24.09 }, "geometry": { "type": "Point", "coordinates": [ -121.89, 37.51 ] } },
{ "type": "Feature", "properties": { "zip": "94541", "city": "Hayward", "state": "CA", "teslas": 50, "tesla_rate": 1.01 }, "geometry": { "type": "Point", "coordinates": [ -122.08, 37.67 ] } },
{ "type": "Feature", "properties": { "zip": "94542", "city": "Hayward", "state": "CA", "teslas": 111, "tesla_rate": 9.82 }, "geometry": { "type": "Point", "coordinates": [ -122.04, 37.65 ] } },
{ "type": "Feature", "properties": { "zip": "94544", "city": "Hayward", "state": "CA", "teslas": 80, "tesla_rate": 1.32 }, "geometry": { "type": "Point", "coordinates": [ -122.04, 37.63 ] } },
{ "type": "Feature", "properties": { "zip": "94545", "city": "Hayward", "state": "CA", "teslas": 72, "tesla_rate": 2.31 }, "geometry": { "type": "Point", "coordinates": [ -122.11, 37.62 ] } },
{ "type": "Feature", "properties": { "zip": "94546", "city": "Castro Valley", "state": "CA", "teslas": 71, "tesla_rate": 1.91 }, "geometry": { "type": "Point", "coordinates": [ -122.08, 37.7 ] } },
{ "type": "Feature", "properties": { "zip": "94547", "city": "Hercules", "state": "CA", "teslas": 62, "tesla_rate": 2.87 }, "geometry": { "type": "Point", "coordinates": [ -122.25, 38.01 ] } },
{ "type": "Feature", "properties": { "zip": "94549", "city": "Lafayette", "state": "CA", "teslas": 343, "tesla_rate": 13.74 }, "geometry": { "type": "Point", "coordinates": [ -122.11, 37.9 ] } },
{ "type": "Feature", "properties": { "zip": "94550", "city": "Livermore", "state": "CA", "teslas": 212, "tesla_rate": 4.63 }, "geometry": { "type": "Point", "coordinates": [ -121.75, 37.68 ] } },
{ "type": "Feature", "properties": { "zip": "94551", "city": "Livermore", "state": "CA", "teslas": 68, "tesla_rate": 1.82 }, "geometry": { "type": "Point", "coordinates": [ -121.75, 37.77 ] } },
{ "type": "Feature", "properties": { "zip": "94552", "city": "Castro Valley", "state": "CA", "teslas": 117, "tesla_rate": 8.56 }, "geometry": { "type": "Point", "coordinates": [ -122.01, 37.69 ] } },
{ "type": "Feature", "properties": { "zip": "94553", "city": "Martinez", "state": "CA", "teslas": 69, "tesla_rate": 1.5 }, "geometry": { "type": "Point", "coordinates": [ -122.15, 37.98 ] } },
{ "type": "Feature", "properties": { "zip": "94555", "city": "Fremont", "state": "CA", "teslas": 817, "tesla_rate": 29.92 }, "geometry": { "type": "Point", "coordinates": [ -122.07, 37.55 ] } },
{ "type": "Feature", "properties": { "zip": "94556", "city": "Moraga", "state": "CA", "teslas": 121, "tesla_rate": 9.5 }, "geometry": { "type": "Point", "coordinates": [ -122.1, 37.83 ] } },
{ "type": "Feature", "properties": { "zip": "94558", "city": "Napa", "state": "CA", "teslas": 196, "tesla_rate": 3.24 }, "geometry": { "type": "Point", "coordinates": [ -122.15, 38.55 ] } },
{ "type": "Feature", "properties": { "zip": "94559", "city": "Napa", "state": "CA", "teslas": 32, "tesla_rate": 1.37 }, "geometry": { "type": "Point", "coordinates": [ -122.29, 38.23 ] } },
{ "type": "Feature", "properties": { "zip": "94560", "city": "Newark", "state": "CA", "teslas": 182, "tesla_rate": 4.63 }, "geometry": { "type": "Point", "coordinates": [ -122.04, 37.51 ] } },
{ "type": "Feature", "properties": { "zip": "94561", "city": "Oakley", "state": "CA", "teslas": 17, "tesla_rate": 0.49 }, "geometry": { "type": "Point", "coordinates": [ -121.68, 37.99 ] } },
{ "type": "Feature", "properties": { "zip": "94563", "city": "Orinda", "state": "CA", "teslas": 349, "tesla_rate": 20.15 }, "geometry": { "type": "Point", "coordinates": [ -122.19, 37.89 ] } },
{ "type": "Feature", "properties": { "zip": "94564", "city": "Pinole", "state": "CA", "teslas": 14, "tesla_rate": 0.84 }, "geometry": { "type": "Point", "coordinates": [ -122.27, 37.99 ] } },
{ "type": "Feature", "properties": { "zip": "94565", "city": "Pittsburg", "state": "CA", "teslas": 48, "tesla_rate": 0.65 }, "geometry": { "type": "Point", "coordinates": [ -121.83, 38.0 ] } },
{ "type": "Feature", "properties": { "zip": "94566", "city": "Pleasanton", "state": "CA", "teslas": 545, "tesla_rate": 14.24 }, "geometry": { "type": "Point", "coordinates": [ -121.85, 37.65 ] } },
{ "type": "Feature", "properties": { "zip": "94568", "city": "Dublin", "state": "CA", "teslas": 732, "tesla_rate": 15.89 }, "geometry": { "type": "Point", "coordinates": [ -121.91, 37.71 ] } },
{ "type": "Feature", "properties": { "zip": "94574", "city": "Saint Helena", "state": "CA", "teslas": 54, "tesla_rate": 6.1 }, "geometry": { "type": "Point", "coordinates": [ -122.39, 38.55 ] } },
{ "type": "Feature", "properties": { "zip": "94577", "city": "San Leandro", "state": "CA", "teslas": 58, "tesla_rate": 1.35 }, "geometry": { "type": "Point", "coordinates": [ -122.16, 37.71 ] } },
{ "type": "Feature", "properties": { "zip": "94578", "city": "San Leandro", "state": "CA", "teslas": 18, "tesla_rate": 0.63 }, "geometry": { "type": "Point", "coordinates": [ -122.12, 37.7 ] } },
{ "type": "Feature", "properties": { "zip": "94579", "city": "San Leandro", "state": "CA", "teslas": 24, "tesla_rate": 1.34 }, "geometry": { "type": "Point", "coordinates": [ -122.15, 37.68 ] } },
{ "type": "Feature", "properties": { "zip": "94580", "city": "San Lorenzo", "state": "CA", "teslas": 14, "tesla_rate": 0.59 }, "geometry": { "type": "Point", "coordinates": [ -122.13, 37.68 ] } },
{ "type": "Feature", "properties": { "zip": "94582", "city": "San Ramon", "state": "CA", "teslas": 790, "tesla_rate": 24.57 }, "geometry": { "type": "Point", "coordinates": [ -121.93, 37.76 ] } },
{ "type": "Feature", "properties": { "zip": "94583", "city": "San Ramon", "state": "CA", "teslas": 302, "tesla_rate": 9.03 }, "geometry": { "type": "Point", "coordinates": [ -121.99, 37.78 ] } },
{ "type": "Feature", "properties": { "zip": "94587", "city": "Union City", "state": "CA", "teslas": 314, "tesla_rate": 5.45 }, "geometry": { "type": "Point", "coordinates": [ -122.06, 37.59 ] } },
{ "type": "Feature", "properties": { "zip": "94588", "city": "Pleasanton", "state": "CA", "teslas": 302, "tesla_rate": 10.13 }, "geometry": { "type": "Point", "coordinates": [ -121.93, 37.67 ] } },
{ "type": "Feature", "properties": { "zip": "94591", "city": "Vallejo", "state": "CA", "teslas": 52, "tesla_rate": 1.12 }, "geometry": { "type": "Point", "coordinates": [ -122.2, 38.11 ] } },
{ "type": "Feature", "properties": { "zip": "94595", "city": "Walnut Creek", "state": "CA", "teslas": 58, "tesla_rate": 4.06 }, "geometry": { "type": "Point", "coordinates": [ -122.07, 37.86 ] } },
{ "type": "Feature", "properties": { "zip": "94596", "city": "Walnut Creek", "state": "CA", "teslas": 110, "tesla_rate": 5.89 }, "geometry": { "type": "Point", "coordinates": [ -122.03, 37.89 ] } },
{ "type": "Feature", "properties": { "zip": "94597", "city": "Walnut Creek", "state": "CA", "teslas": 82, "tesla_rate": 4.67 }, "geometry": { "type": "Point", "coordinates": [ -122.07, 37.91 ] } },
{ "type": "Feature", "properties": { "zip": "94598", "city": "Walnut Creek", "state": "CA", "teslas": 157, "tesla_rate": 6.9 }, "geometry": { "type": "Point", "coordinates": [ -122.01, 37.91 ] } },
{ "type": "Feature", "properties": { "zip": "94602", "city": "Oakland", "state": "CA", "teslas": 52, "tesla_rate": 2.51 }, "geometry": { "type": "Point", "coordinates": [ -122.21, 37.8 ] } },
{ "type": "Feature", "properties": { "zip": "94605", "city": "Oakland", "state": "CA", "teslas": 65, "tesla_rate": 2.19 }, "geometry": { "type": "Point", "coordinates": [ -122.13, 37.75 ] } },
{ "type": "Feature", "properties": { "zip": "94607", "city": "Oakland", "state": "CA", "teslas": 40, "tesla_rate": 2.67 }, "geometry": { "type": "Point", "coordinates": [ -122.3, 37.81 ] } },
{ "type": "Feature", "properties": { "zip": "94608", "city": "Emeryville", "state": "CA", "teslas": 57, "tesla_rate": 3.07 }, "geometry": { "type": "Point", "coordinates": [ -122.29, 37.83 ] } },
{ "type": "Feature", "properties": { "zip": "94609", "city": "Oakland", "state": "CA", "teslas": 22, "tesla_rate": 1.79 }, "geometry": { "type": "Point", "coordinates": [ -122.26, 37.83 ] } },
{ "type": "Feature", "properties": { "zip": "94610", "city": "Oakland", "state": "CA", "teslas": 140, "tesla_rate": 6.84 }, "geometry": { "type": "Point", "coordinates": [ -122.24, 37.81 ] } },
{ "type": "Feature", "properties": { "zip": "94611", "city": "Oakland", "state": "CA", "teslas": 395, "tesla_rate": 13.4 }, "geometry": { "type": "Point", "coordinates": [ -122.22, 37.83 ] } },
{ "type": "Feature", "properties": { "zip": "94612", "city": "Oakland", "state": "CA", "teslas": 15, "tesla_rate": 1.44 }, "geometry": { "type": "Point", "coordinates": [ -122.27, 37.8 ] } },
{ "type": "Feature", "properties": { "zip": "94618", "city": "Oakland", "state": "CA", "teslas": 145, "tesla_rate": 12.17 }, "geometry": { "type": "Point", "coordinates": [ -122.23, 37.84 ] } },
{ "type": "Feature", "properties": { "zip": "94619", "city": "Oakland", "state": "CA", "teslas": 38, "tesla_rate": 2.14 }, "geometry": { "type": "Point", "coordinates": [ -122.12, 37.78 ] } },
{ "type": "Feature", "properties": { "zip": "94702", "city": "Berkeley", "state": "CA", "teslas": 14, "tesla_rate": 1.27 }, "geometry": { "type": "Point", "coordinates": [ -122.28, 37.86 ] } },
{ "type": "Feature", "properties": { "zip": "94703", "city": "Berkeley", "state": "CA", "teslas": 16, "tesla_rate": 1.42 }, "geometry": { "type": "Point", "coordinates": [ -122.27, 37.86 ] } },
{ "type": "Feature", "properties": { "zip": "94705", "city": "Berkeley", "state": "CA", "teslas": 123, "tesla_rate": 12.6 }, "geometry": { "type": "Point", "coordinates": [ -122.24, 37.86 ] } },
{ "type": "Feature", "properties": { "zip": "94706", "city": "Albany", "state": "CA", "teslas": 22, "tesla_rate": 1.78 }, "geometry": { "type": "Point", "coordinates": [ -122.29, 37.88 ] } },
{ "type": "Feature", "properties": { "zip": "94707", "city": "Berkeley", "state": "CA", "teslas": 75, "tesla_rate": 7.44 }, "geometry": { "type": "Point", "coordinates": [ -122.28, 37.9 ] } },
{ "type": "Feature", "properties": { "zip": "94708", "city": "Berkeley", "state": "CA", "teslas": 90, "tesla_rate": 10.14 }, "geometry": { "type": "Point", "coordinates": [ -122.26, 37.9 ] } },
{ "type": "Feature", "properties": { "zip": "94801", "city": "Richmond", "state": "CA", "teslas": 18, "tesla_rate": 0.78 }, "geometry": { "type": "Point", "coordinates": [ -122.38, 37.96 ] } },
{ "type": "Feature", "properties": { "zip": "94803", "city": "El Sobrante", "state": "CA", "teslas": 12, "tesla_rate": 0.55 }, "geometry": { "type": "Point", "coordinates": [ -122.26, 37.95 ] } },
{ "type": "Feature", "properties": { "zip": "94804", "city": "Richmond", "state": "CA", "teslas": 18, "tesla_rate": 0.58 }, "geometry": { "type": "Point", "coordinates": [ -122.34, 37.92 ] } },
{ "type": "Feature", "properties": { "zip": "94806", "city": "San Pablo", "state": "CA", "teslas": 19, "tesla_rate": 0.41 }, "geometry": { "type": "Point", "coordinates": [ -122.33, 37.98 ] } },
{ "type": "Feature", "properties": { "zip": "94901", "city": "San Rafael", "state": "CA", "teslas": 198, "tesla_rate": 5.41 }, "geometry": { "type": "Point", "coordinates": [ -122.5, 37.97 ] } },
{ "type": "Feature", "properties": { "zip": "94903", "city": "San Rafael", "state": "CA", "teslas": 113, "tesla_rate": 4.46 }, "geometry": { "type": "Point", "coordinates": [ -122.54, 38.02 ] } },
{ "type": "Feature", "properties": { "zip": "94904", "city": "Greenbrae", "state": "CA", "teslas": 167, "tesla_rate": 16.1 }, "geometry": { "type": "Point", "coordinates": [ -122.56, 37.94 ] } },
{ "type": "Feature", "properties": { "zip": "94920", "city": "Belvedere Tiburon", "state": "CA", "teslas": 285, "tesla_rate": 25.35 }, "geometry": { "type": "Point", "coordinates": [ -122.47, 37.89 ] } },
{ "type": "Feature", "properties": { "zip": "94925", "city": "Corte Madera", "state": "CA", "teslas": 41, "tesla_rate": 4.96 }, "geometry": { "type": "Point", "coordinates": [ -122.51, 37.92 ] } },
{ "type": "Feature", "properties": { "zip": "94930", "city": "Fairfax", "state": "CA", "teslas": 14, "tesla_rate": 1.95 }, "geometry": { "type": "Point", "coordinates": [ -122.6, 37.98 ] } },
{ "type": "Feature", "properties": { "zip": "94939", "city": "Larkspur", "state": "CA", "teslas": 63, "tesla_rate": 10.57 }, "geometry": { "type": "Point", "coordinates": [ -122.53, 37.93 ] } },
{ "type": "Feature", "properties": { "zip": "94941", "city": "Mill Valley", "state": "CA", "teslas": 358, "tesla_rate": 14.09 }, "geometry": { "type": "Point", "coordinates": [ -122.56, 37.89 ] } },
{ "type": "Feature", "properties": { "zip": "94945", "city": "Novato", "state": "CA", "teslas": 59, "tesla_rate": 3.56 }, "geometry": { "type": "Point", "coordinates": [ -122.56, 38.13 ] } },
{ "type": "Feature", "properties": { "zip": "94947", "city": "Novato", "state": "CA", "teslas": 46, "tesla_rate": 2.1 }, "geometry": { "type": "Point", "coordinates": [ -122.63, 38.1 ] } },
{ "type": "Feature", "properties": { "zip": "94949", "city": "Novato", "state": "CA", "teslas": 67, "tesla_rate": 4.27 }, "geometry": { "type": "Point", "coordinates": [ -122.54, 38.06 ] } },
{ "type": "Feature", "properties": { "zip": "94952", "city": "Petaluma", "state": "CA", "teslas": 90, "tesla_rate": 2.82 }, "geometry": { "type": "Point", "coordinates": [ -122.76, 38.21 ] } },
{ "type": "Feature", "properties": { "zip": "94954", "city": "Petaluma", "state": "CA", "teslas": 25, "tesla_rate": 0.74 }, "geometry": { "type": "Point", "coordinates": [ -122.56, 38.23 ] } },
{ "type": "Feature", "properties": { "zip": "94960", "city": "San Anselmo", "state": "CA", "teslas": 91, "tesla_rate": 7.28 }, "geometry": { "type": "Point", "coordinates": [ -122.58, 37.99 ] } },
{ "type": "Feature", "properties": { "zip": "94965", "city": "Sausalito", "state": "CA", "teslas": 58, "tesla_rate": 6.1 }, "geometry": { "type": "Point", "coordinates": [ -122.53, 37.84 ] } },
{ "type": "Feature", "properties": { "zip": "95003", "city": "Aptos", "state": "CA", "teslas": 102, "tesla_rate": 4.61 }, "geometry": { "type": "Point", "coordinates": [ -121.87, 37.0 ] } },
{ "type": "Feature", "properties": { "zip": "95006", "city": "Boulder Creek", "state": "CA", "teslas": 11, "tesla_rate": 1.23 }, "geometry": { "type": "Point", "coordinates": [ -122.15, 37.16 ] } },
{ "type": "Feature", "properties": { "zip": "95008", "city": "Campbell", "state": "CA", "teslas": 316, "tesla_rate": 7.86 }, "geometry": { "type": "Point", "coordinates": [ -121.95, 37.28 ] } },
{ "type": "Feature", "properties": { "zip": "95010", "city": "Capitola", "state": "CA", "teslas": 13, "tesla_rate": 1.49 }, "geometry": { "type": "Point", "coordinates": [ -121.95, 36.97 ] } },
{ "type": "Feature", "properties": { "zip": "95014", "city": "Cupertino", "state": "CA", "teslas": 953, "tesla_rate": 20.35 }, "geometry": { "type": "Point", "coordinates": [ -122.09, 37.3 ] } },
{ "type": "Feature", "properties": { "zip": "95020", "city": "Gilroy", "state": "CA", "teslas": 170, "tesla_rate": 3.11 }, "geometry": { "type": "Point", "coordinates": [ -121.55, 37.06 ] } },
{ "type": "Feature", "properties": { "zip": "95023", "city": "Hollister", "state": "CA", "teslas": 27, "tesla_rate": 0.57 }, "geometry": { "type": "Point", "coordinates": [ -121.24, 36.89 ] } },
{ "type": "Feature", "properties": { "zip": "95030", "city": "Los Gatos", "state": "CA", "teslas": 423, "tesla_rate": 32.94 }, "geometry": { "type": "Point", "coordinates": [ -121.99, 37.22 ] } },
{ "type": "Feature", "properties": { "zip": "95032", "city": "Los Gatos", "state": "CA", "teslas": 484, "tesla_rate": 20.34 }, "geometry": { "type": "Point", "coordinates": [ -121.95, 37.23 ] } },
{ "type": "Feature", "properties": { "zip": "95033", "city": "Los Gatos", "state": "CA", "teslas": 105, "tesla_rate": 11.1 }, "geometry": { "type": "Point", "coordinates": [ -121.94, 37.13 ] } },
{ "type": "Feature", "properties": { "zip": "95035", "city": "Milpitas", "state": "CA", "teslas": 486, "tesla_rate": 8.02 }, "geometry": { "type": "Point", "coordinates": [ -121.87, 37.44 ] } },
{ "type": "Feature", "properties": { "zip": "95037", "city": "Morgan Hill", "state": "CA", "teslas": 395, "tesla_rate": 8.54 }, "geometry": { "type": "Point", "coordinates": [ -121.65, 37.17 ] } },
{ "type": "Feature", "properties": { "zip": "95050", "city": "Santa Clara", "state": "CA", "teslas": 156, "tesla_rate": 5.06 }, "geometry": { "type": "Point", "coordinates": [ -121.95, 37.34 ] } },
{ "type": "Feature", "properties": { "zip": "95051", "city": "Santa Clara", "state": "CA", "teslas": 354, "tesla_rate": 7.5 }, "geometry": { "type": "Point", "coordinates": [ -121.98, 37.35 ] } },
{ "type": "Feature", "properties": { "zip": "95054", "city": "Santa Clara", "state": "CA", "teslas": 203, "tesla_rate": 10.26 }, "geometry": { "type": "Point", "coordinates": [ -121.96, 37.39 ] } },
{ "type": "Feature", "properties": { "zip": "95060", "city": "Santa Cruz", "state": "CA", "teslas": 183, "tesla_rate": 5.28 }, "geometry": { "type": "Point", "coordinates": [ -122.1, 37.04 ] } },
{ "type": "Feature", "properties": { "zip": "95062", "city": "Santa Cruz", "state": "CA", "teslas": 44, "tesla_rate": 1.48 }, "geometry": { "type": "Point", "coordinates": [ -121.98, 36.97 ] } },
{ "type": "Feature", "properties": { "zip": "95065", "city": "Santa Cruz", "state": "CA", "teslas": 16, "tesla_rate": 2.17 }, "geometry": { "type": "Point", "coordinates": [ -121.98, 37.03 ] } },
{ "type": "Feature", "properties": { "zip": "95066", "city": "Scotts Valley", "state": "CA", "teslas": 72, "tesla_rate": 5.25 }, "geometry": { "type": "Point", "coordinates": [ -122.01, 37.06 ] } },
{ "type": "Feature", "properties": { "zip": "95070", "city": "Saratoga", "state": "CA", "teslas": 1065, "tesla_rate": 35.36 }, "geometry": { "type": "Point", "coordinates": [ -122.06, 37.25 ] } },
{ "type": "Feature", "properties": { "zip": "95073", "city": "Soquel", "state": "CA", "teslas": 16, "tesla_rate": 1.48 }, "geometry": { "type": "Point", "coordinates": [ -121.94, 37.02 ] } },
{ "type": "Feature", "properties": { "zip": "95076", "city": "Watsonville", "state": "CA", "teslas": 48, "tesla_rate": 0.69 }, "geometry": { "type": "Point", "coordinates": [ -121.72, 36.95 ] } },
{ "type": "Feature", "properties": { "zip": "95110", "city": "San Jose", "state": "CA", "teslas": 61, "tesla_rate": 3.72 }, "geometry": { "type": "Point", "coordinates": [ -121.9, 37.34 ] } },
{ "type": "Feature", "properties": { "zip": "95111", "city": "San Jose", "state": "CA", "teslas": 76, "tesla_rate": 1.61 }, "geometry": { "type": "Point", "coordinates": [ -121.83, 37.28 ] } },
{ "type": "Feature", "properties": { "zip": "95112", "city": "San Jose", "state": "CA", "teslas": 112, "tesla_rate": 2.57 }, "geometry": { "type": "Point", "coordinates": [ -121.88, 37.34 ] } },
{ "type": "Feature", "properties": { "zip": "95113", "city": "San Jose", "state": "CA", "teslas": 36, "tesla_rate": 17.84 }, "geometry": { "type": "Point", "coordinates": [ -121.89, 37.33 ] } },
{ "type": "Feature", "properties": { "zip": "95116", "city": "San Jose", "state": "CA", "teslas": 21, "tesla_rate": 0.57 }, "geometry": { "type": "Point", "coordinates": [ -121.85, 37.35 ] } },
{ "type": "Feature", "properties": { "zip": "95117", "city": "San Jose", "state": "CA", "teslas": 79, "tesla_rate": 3.56 }, "geometry": { "type": "Point", "coordinates": [ -121.96, 37.31 ] } },
{ "type": "Feature", "properties": { "zip": "95118", "city": "San Jose", "state": "CA", "teslas": 131, "tesla_rate": 5.07 }, "geometry": { "type": "Point", "coordinates": [ -121.88, 37.25 ] } },
{ "type": "Feature", "properties": { "zip": "95119", "city": "San Jose", "state": "CA", "teslas": 12, "tesla_rate": 1.37 }, "geometry": { "type": "Point", "coordinates": [ -121.78, 37.22 ] } },
{ "type": "Feature", "properties": { "zip": "95120", "city": "San Jose", "state": "CA", "teslas": 612, "tesla_rate": 18.07 }, "geometry": { "type": "Point", "coordinates": [ -121.83, 37.19 ] } },
{ "type": "Feature", "properties": { "zip": "95121", "city": "San Jose", "state": "CA", "teslas": 146, "tesla_rate": 4.66 }, "geometry": { "type": "Point", "coordinates": [ -121.8, 37.3 ] } },
{ "type": "Feature", "properties": { "zip": "95122", "city": "San Jose", "state": "CA", "teslas": 18, "tesla_rate": 0.42 }, "geometry": { "type": "Point", "coordinates": [ -121.83, 37.33 ] } },
{ "type": "Feature", "properties": { "zip": "95123", "city": "San Jose", "state": "CA", "teslas": 250, "tesla_rate": 4.75 }, "geometry": { "type": "Point", "coordinates": [ -121.82, 37.23 ] } },
{ "type": "Feature", "properties": { "zip": "95124", "city": "San Jose", "state": "CA", "teslas": 338, "tesla_rate": 8.41 }, "geometry": { "type": "Point", "coordinates": [ -121.92, 37.25 ] } },
{ "type": "Feature", "properties": { "zip": "95125", "city": "San Jose", "state": "CA", "teslas": 510, "tesla_rate": 11.84 }, "geometry": { "type": "Point", "coordinates": [ -121.88, 37.29 ] } },
{ "type": "Feature", "properties": { "zip": "95126", "city": "San Jose", "state": "CA", "teslas": 185, "tesla_rate": 6.82 }, "geometry": { "type": "Point", "coordinates": [ -121.91, 37.32 ] } },
{ "type": "Feature", "properties": { "zip": "95127", "city": "San Jose", "state": "CA", "teslas": 75, "tesla_rate": 1.47 }, "geometry": { "type": "Point", "coordinates": [ -121.75, 37.37 ] } },
{ "type": "Feature", "properties": { "zip": "95128", "city": "San Jose", "state": "CA", "teslas": 135, "tesla_rate": 5.14 }, "geometry": { "type": "Point", "coordinates": [ -121.93, 37.31 ] } },
{ "type": "Feature", "properties": { "zip": "95129", "city": "San Jose", "state": "CA", "teslas": 335, "tesla_rate": 10.76 }, "geometry": { "type": "Point", "coordinates": [ -122.0, 37.3 ] } },
{ "type": "Feature", "properties": { "zip": "95130", "city": "San Jose", "state": "CA", "teslas": 60, "tesla_rate": 5.65 }, "geometry": { "type": "Point", "coordinates": [ -121.98, 37.28 ] } },
{ "type": "Feature", "properties": { "zip": "95131", "city": "San Jose", "state": "CA", "teslas": 220, "tesla_rate": 7.87 }, "geometry": { "type": "Point", "coordinates": [ -121.9, 37.38 ] } },
{ "type": "Feature", "properties": { "zip": "95132", "city": "San Jose", "state": "CA", "teslas": 154, "tesla_rate": 4.51 }, "geometry": { "type": "Point", "coordinates": [ -121.77, 37.42 ] } },
{ "type": "Feature", "properties": { "zip": "95133", "city": "San Jose", "state": "CA", "teslas": 91, "tesla_rate": 3.85 }, "geometry": { "type": "Point", "coordinates": [ -121.86, 37.37 ] } },
{ "type": "Feature", "properties": { "zip": "95134", "city": "San Jose", "state": "CA", "teslas": 208, "tesla_rate": 9.93 }, "geometry": { "type": "Point", "coordinates": [ -121.94, 37.42 ] } },
{ "type": "Feature", "properties": { "zip": "95135", "city": "San Jose", "state": "CA", "teslas": 345, "tesla_rate": 19.71 }, "geometry": { "type": "Point", "coordinates": [ -121.67, 37.25 ] } },
{ "type": "Feature", "properties": { "zip": "95136", "city": "San Jose", "state": "CA", "teslas": 160, "tesla_rate": 4.4 }, "geometry": { "type": "Point", "coordinates": [ -121.84, 37.27 ] } },
{ "type": "Feature", "properties": { "zip": "95138", "city": "San Jose", "state": "CA", "teslas": 442, "tesla_rate": 28.45 }, "geometry": { "type": "Point", "coordinates": [ -121.73, 37.24 ] } },
{ "type": "Feature", "properties": { "zip": "95139", "city": "San Jose", "state": "CA", "teslas": 15, "tesla_rate": 2.64 }, "geometry": { "type": "Point", "coordinates": [ -121.75, 37.21 ] } },
{ "type": "Feature", "properties": { "zip": "95148", "city": "San Jose", "state": "CA", "teslas": 210, "tesla_rate": 5.3 }, "geometry": { "type": "Point", "coordinates": [ -121.77, 37.33 ] } },
{ "type": "Feature", "properties": { "zip": "95209", "city": "Stockton", "state": "CA", "teslas": 13, "tesla_rate": 0.42 }, "geometry": { "type": "Point", "coordinates": [ -121.35, 38.04 ] } },
{ "type": "Feature", "properties": { "zip": "95219", "city": "Stockton", "state": "CA", "teslas": 51, "tesla_rate": 2.4 }, "geometry": { "type": "Point", "coordinates": [ -121.38, 38.01 ] } },
{ "type": "Feature", "properties": { "zip": "95304", "city": "Tracy", "state": "CA", "teslas": 12, "tesla_rate": 0.89 }, "geometry": { "type": "Point", "coordinates": [ -121.39, 37.69 ] } },
{ "type": "Feature", "properties": { "zip": "95330", "city": "Lathrop", "state": "CA", "teslas": 12, "tesla_rate": 0.59 }, "geometry": { "type": "Point", "coordinates": [ -121.29, 37.82 ] } },
{ "type": "Feature", "properties": { "zip": "95337", "city": "Manteca", "state": "CA", "teslas": 14, "tesla_rate": 0.43 }, "geometry": { "type": "Point", "coordinates": [ -121.24, 37.73 ] } },
{ "type": "Feature", "properties": { "zip": "95340", "city": "Merced", "state": "CA", "teslas": 11, "tesla_rate": 0.44 }, "geometry": { "type": "Point", "coordinates": [ -120.48, 37.29 ] } },
{ "type": "Feature", "properties": { "zip": "95355", "city": "Modesto", "state": "CA", "teslas": 12, "tesla_rate": 0.28 }, "geometry": { "type": "Point", "coordinates": [ -120.95, 37.67 ] } },
{ "type": "Feature", "properties": { "zip": "95356", "city": "Modesto", "state": "CA", "teslas": 46, "tesla_rate": 1.65 }, "geometry": { "type": "Point", "coordinates": [ -121.03, 37.72 ] } },
{ "type": "Feature", "properties": { "zip": "95376", "city": "Tracy", "state": "CA", "teslas": 12, "tesla_rate": 0.28 }, "geometry": { "type": "Point", "coordinates": [ -121.42, 37.73 ] } },
{ "type": "Feature", "properties": { "zip": "95377", "city": "Tracy", "state": "CA", "teslas": 34, "tesla_rate": 1.26 }, "geometry": { "type": "Point", "coordinates": [ -121.45, 37.62 ] } },
{ "type": "Feature", "properties": { "zip": "95391", "city": "Tracy", "state": "CA", "teslas": 94, "tesla_rate": 7.69 }, "geometry": { "type": "Point", "coordinates": [ -121.63, 37.76 ] } },
{ "type": "Feature", "properties": { "zip": "95403", "city": "Santa Rosa", "state": "CA", "teslas": 39, "tesla_rate": 1.13 }, "geometry": { "type": "Point", "coordinates": [ -122.76, 38.5 ] } },
{ "type": "Feature", "properties": { "zip": "95404", "city": "Santa Rosa", "state": "CA", "teslas": 104, "tesla_rate": 3.31 }, "geometry": { "type": "Point", "coordinates": [ -122.68, 38.45 ] } },
{ "type": "Feature", "properties": { "zip": "95405", "city": "Santa Rosa", "state": "CA", "teslas": 17, "tesla_rate": 0.93 }, "geometry": { "type": "Point", "coordinates": [ -122.67, 38.43 ] } },
{ "type": "Feature", "properties": { "zip": "95409", "city": "Santa Rosa", "state": "CA", "teslas": 63, "tesla_rate": 2.74 }, "geometry": { "type": "Point", "coordinates": [ -122.59, 38.45 ] } },
{ "type": "Feature", "properties": { "zip": "95448", "city": "Healdsburg", "state": "CA", "teslas": 63, "tesla_rate": 2.98 }, "geometry": { "type": "Point", "coordinates": [ -122.89, 38.63 ] } },
{ "type": "Feature", "properties": { "zip": "95472", "city": "Sebastopol", "state": "CA", "teslas": 76, "tesla_rate": 2.76 }, "geometry": { "type": "Point", "coordinates": [ -122.86, 38.4 ] } },
{ "type": "Feature", "properties": { "zip": "95476", "city": "Sonoma", "state": "CA", "teslas": 125, "tesla_rate": 4.07 }, "geometry": { "type": "Point", "coordinates": [ -122.46, 38.24 ] } },
{ "type": "Feature", "properties": { "zip": "95492", "city": "Windsor", "state": "CA", "teslas": 32, "tesla_rate": 1.3 }, "geometry": { "type": "Point", "coordinates": [ -122.81, 38.53 ] } },
{ "type": "Feature", "properties": { "zip": "95608", "city": "Carmichael", "state": "CA", "teslas": 78, "tesla_rate": 1.67 }, "geometry": { "type": "Point", "coordinates": [ -121.32, 38.62 ] } },
{ "type": "Feature", "properties": { "zip": "95616", "city": "Davis", "state": "CA", "teslas": 54, "tesla_rate": 2.18 }, "geometry": { "type": "Point", "coordinates": [ -121.64, 38.48 ] } },
{ "type": "Feature", "properties": { "zip": "95618", "city": "Davis", "state": "CA", "teslas": 116, "tesla_rate": 5.96 }, "geometry": { "type": "Point", "coordinates": [ -121.66, 38.53 ] } },
{ "type": "Feature", "properties": { "zip": "95624", "city": "Elk Grove", "state": "CA", "teslas": 79, "tesla_rate": 1.48 }, "geometry": { "type": "Point", "coordinates": [ -121.3, 38.44 ] } },
{ "type": "Feature", "properties": { "zip": "95628", "city": "Fair Oaks", "state": "CA", "teslas": 23, "tesla_rate": 0.64 }, "geometry": { "type": "Point", "coordinates": [ -121.25, 38.65 ] } },
{ "type": "Feature", "properties": { "zip": "95630", "city": "Folsom", "state": "CA", "teslas": 196, "tesla_rate": 3.42 }, "geometry": { "type": "Point", "coordinates": [ -121.14, 38.67 ] } },
{ "type": "Feature", "properties": { "zip": "95648", "city": "Lincoln", "state": "CA", "teslas": 71, "tesla_rate": 1.6 }, "geometry": { "type": "Point", "coordinates": [ -121.25, 38.93 ] } },
{ "type": "Feature", "properties": { "zip": "95650", "city": "Loomis", "state": "CA", "teslas": 32, "tesla_rate": 2.28 }, "geometry": { "type": "Point", "coordinates": [ -121.16, 38.81 ] } },
{ "type": "Feature", "properties": { "zip": "95661", "city": "Roseville", "state": "CA", "teslas": 50, "tesla_rate": 1.57 }, "geometry": { "type": "Point", "coordinates": [ -121.25, 38.74 ] } },
{ "type": "Feature", "properties": { "zip": "95670", "city": "Rancho Cordova", "state": "CA", "teslas": 30, "tesla_rate": 0.73 }, "geometry": { "type": "Point", "coordinates": [ -121.26, 38.6 ] } },
{ "type": "Feature", "properties": { "zip": "95677", "city": "Rocklin", "state": "CA", "teslas": 27, "tesla_rate": 1.13 }, "geometry": { "type": "Point", "coordinates": [ -121.24, 38.8 ] } },
{ "type": "Feature", "properties": { "zip": "95678", "city": "Roseville", "state": "CA", "teslas": 30, "tesla_rate": 0.87 }, "geometry": { "type": "Point", "coordinates": [ -121.28, 38.76 ] } },
{ "type": "Feature", "properties": { "zip": "95682", "city": "Shingle Springs", "state": "CA", "teslas": 23, "tesla_rate": 0.81 }, "geometry": { "type": "Point", "coordinates": [ -120.97, 38.61 ] } },
{ "type": "Feature", "properties": { "zip": "95687", "city": "Vacaville", "state": "CA", "teslas": 26, "tesla_rate": 0.53 }, "geometry": { "type": "Point", "coordinates": [ -121.93, 38.35 ] } },
{ "type": "Feature", "properties": { "zip": "95688", "city": "Vacaville", "state": "CA", "teslas": 43, "tesla_rate": 1.23 }, "geometry": { "type": "Point", "coordinates": [ -122.01, 38.41 ] } },
{ "type": "Feature", "properties": { "zip": "95691", "city": "West Sacramento", "state": "CA", "teslas": 22, "tesla_rate": 0.68 }, "geometry": { "type": "Point", "coordinates": [ -121.62, 38.66 ] } },
{ "type": "Feature", "properties": { "zip": "95742", "city": "Rancho Cordova", "state": "CA", "teslas": 15, "tesla_rate": 0.86 }, "geometry": { "type": "Point", "coordinates": [ -121.17, 38.57 ] } },
{ "type": "Feature", "properties": { "zip": "95746", "city": "Granite Bay", "state": "CA", "teslas": 177, "tesla_rate": 8.19 }, "geometry": { "type": "Point", "coordinates": [ -121.16, 38.76 ] } },
{ "type": "Feature", "properties": { "zip": "95747", "city": "Roseville", "state": "CA", "teslas": 138, "tesla_rate": 2.58 }, "geometry": { "type": "Point", "coordinates": [ -121.37, 38.78 ] } },
{ "type": "Feature", "properties": { "zip": "95757", "city": "Elk Grove", "state": "CA", "teslas": 82, "tesla_rate": 2.21 }, "geometry": { "type": "Point", "coordinates": [ -121.42, 38.35 ] } },
{ "type": "Feature", "properties": { "zip": "95758", "city": "Elk Grove", "state": "CA", "teslas": 70, "tesla_rate": 1.43 }, "geometry": { "type": "Point", "coordinates": [ -121.42, 38.34 ] } },
{ "type": "Feature", "properties": { "zip": "95762", "city": "El Dorado Hills", "state": "CA", "teslas": 259, "tesla_rate": 6.45 }, "geometry": { "type": "Point", "coordinates": [ -121.05, 38.68 ] } },
{ "type": "Feature", "properties": { "zip": "95765", "city": "Rocklin", "state": "CA", "teslas": 75, "tesla_rate": 2.49 }, "geometry": { "type": "Point", "coordinates": [ -121.28, 38.81 ] } },
{ "type": "Feature", "properties": { "zip": "95811", "city": "Sacramento", "state": "CA", "teslas": 11, "tesla_rate": 1.44 }, "geometry": { "type": "Point", "coordinates": [ -121.49, 38.59 ] } },
{ "type": "Feature", "properties": { "zip": "95816", "city": "Sacramento", "state": "CA", "teslas": 16, "tesla_rate": 0.63 }, "geometry": { "type": "Point", "coordinates": [ -121.46, 38.57 ] } },
{ "type": "Feature", "properties": { "zip": "95818", "city": "Sacramento", "state": "CA", "teslas": 18, "tesla_rate": 1.08 }, "geometry": { "type": "Point", "coordinates": [ -121.49, 38.55 ] } },
{ "type": "Feature", "properties": { "zip": "95819", "city": "Sacramento", "state": "CA", "teslas": 25, "tesla_rate": 1.81 }, "geometry": { "type": "Point", "coordinates": [ -121.43, 38.56 ] } },
{ "type": "Feature", "properties": { "zip": "95822", "city": "Sacramento", "state": "CA", "teslas": 17, "tesla_rate": 0.51 }, "geometry": { "type": "Point", "coordinates": [ -121.49, 38.51 ] } },
{ "type": "Feature", "properties": { "zip": "95826", "city": "Sacramento", "state": "CA", "teslas": 11, "tesla_rate": 0.4 }, "geometry": { "type": "Point", "coordinates": [ -121.38, 38.54 ] } },
{ "type": "Feature", "properties": { "zip": "95829", "city": "Sacramento", "state": "CA", "teslas": 19, "tesla_rate": 0.77 }, "geometry": { "type": "Point", "coordinates": [ -121.34, 38.48 ] } },
{ "type": "Feature", "properties": { "zip": "95831", "city": "Sacramento", "state": "CA", "teslas": 60, "tesla_rate": 1.82 }, "geometry": { "type": "Point", "coordinates": [ -121.53, 38.49 ] } },
{ "type": "Feature", "properties": { "zip": "95833", "city": "Sacramento", "state": "CA", "teslas": 13, "tesla_rate": 0.49 }, "geometry": { "type": "Point", "coordinates": [ -121.49, 38.61 ] } },
{ "type": "Feature", "properties": { "zip": "95834", "city": "Sacramento", "state": "CA", "teslas": 28, "tesla_rate": 1.16 }, "geometry": { "type": "Point", "coordinates": [ -121.54, 38.64 ] } },
{ "type": "Feature", "properties": { "zip": "95835", "city": "Sacramento", "state": "CA", "teslas": 46, "tesla_rate": 1.66 }, "geometry": { "type": "Point", "coordinates": [ -121.56, 38.69 ] } },
{ "type": "Feature", "properties": { "zip": "95864", "city": "Sacramento", "state": "CA", "teslas": 71, "tesla_rate": 3.7 }, "geometry": { "type": "Point", "coordinates": [ -121.37, 38.58 ] } },
{ "type": "Feature", "properties": { "zip": "95926", "city": "Chico", "state": "CA", "teslas": 12, "tesla_rate": 0.51 }, "geometry": { "type": "Point", "coordinates": [ -121.83, 39.74 ] } },
{ "type": "Feature", "properties": { "zip": "95928", "city": "Chico", "state": "CA", "teslas": 13, "tesla_rate": 0.5 }, "geometry": { "type": "Point", "coordinates": [ -121.81, 39.71 ] } },
{ "type": "Feature", "properties": { "zip": "96161", "city": "Truckee", "state": "CA", "teslas": 14, "tesla_rate": 0.99 }, "geometry": { "type": "Point", "coordinates": [ -120.24, 39.33 ] } }
]
}
